Latitude,Longitude,Name,Address
-73.957604,40.970705,"Target - Closter,","29 Vervalen St,Closter,NJ,07624 ,#3235,,(201) 367-1405"
-87.519174,33.193065,"Target - Tuscaloosa,","1901 13th Ave E,Tuscaloosa,AL,35404 ,#1787,(205) 462-1064"
-116.791171,47.733311,"Target - Coeur d'Alene,","315 W Canfield Ave,Coeur D Alene,ID,83815 ,#0679,(208) 772-7523"
-121.372991,38.048541,"Target - Stockton North,","10424 Trinity Pkwy,Stockton,CA,95219 ,#1862,(209) 235-0251"
-121.300125,37.807874,"Target - Lathrop,","16858 Golden Valley Pkwy,Lathrop,CA,95330 ,#2347,(209) 242-5041"
-120.613616,37.342708,"Target - Atwater,","1000 Commerce Ave,Atwater,CA,95301 ,#2386,(209) 357-4820"
-121.302838,38.115696,"Target - Lodi,","2355 W Kettleman Ln,Lodi,CA,95242 ,#0853,(209) 369-9371"
-121.315757,37.990975,"Target - Stockton,","4707 Pacific Ave,Stockton,CA,95207 ,#0313,(209) 476-8081"
-121.066909,37.695485,"Target - Modesto NW,","3900 Sisk Rd,Modesto,CA,95356 ,#0938,(209) 543-9561"
-120.994535,37.687121,"Target - Modesto,","3405 Mchenry Ave,Modesto,CA,95350 ,#0273,(209) 572-3341"
-120.880878,37.520344,"Target - Turlock,","3000 Countryside Dr,Turlock,CA,95380 ,#1304,(209) 632-0132"
-120.486723,37.321822,"Target - Merced,","3280 R St,Merced,CA,95348 ,#0641,(209) 725-3482"
-121.197808,37.795124,"Target - Manteca,","280 Spreckels Ave,Manteca,CA,95336 ,#1526,(209) 823-9982"
-120.871988,37.054651,"Target - Los Banos,","1405 W Pacheco Blvd,Los Banos,CA,93635 ,#2359,(209) 827-2080"
-121.462075,37.758141,"Target - Tracy,","2800 Naglee Rd,Tracy,CA,95304 ,#0738,(209) 833-3494"
-120.954455,37.711011,"Target - Riverbank,","2425 Claribel Rd,Riverbank,CA,95367 ,#2096,(209) 863-1270"
-98.598503,29.607109,"Target - La Cantera,","17502 La Cantera Pkwy,San Antonio,TX,78257 ,#2187,(210) 247-0113"
-118.284024,34.026619,"Target - Los Angeles USC Villlage,","3131 S Hoover St,Los Angeles,CA,90089 ,#3217,(213) 275-3149"
-118.287011,34.063086,"Target - Los Angeles Koreatown,","620 S Virgil Ave,Los Angeles,CA,90005 ,#3216,,(213) 296-3712"
-118.260397,34.049061,"Target - LA Central,","735 S Figueroa St,Los Angeles,CA,90017 ,#2776,(213) 330-4543"
-118.26326,34.077655,"Target - LA Sunset,","5500 W Sunset Blvd,Los Angeles,CA,90026 ,#2479,(213) 588-7000"
-75.090301,39.990062,"Target - Phila Bridesburg,","2701 Castor Ave,Philadelphia,PA,19134 ,#2075,(215) 305-9050"
-88.958292,39.891013,"Target - Decatur,","355 W Mound Rd,Decatur,IL,62526 ,#1951,(217) 875-6060"
-87.508751,41.567977,"Target - Munster,","8005 Calumet Ave,Munster,IN,46321 ,#1913,(219) 836-2489"
-81.943863,26.511047,"Target - Fort Myers SW,","15880 San Carlos Blvd,Ft Myers,FL,33908 ,#2363,(239) 265-9002"
-81.974492,26.606512,"Target - Cape Coral,","2430 Santa Barbara Blvd,Cape Coral,FL,33914 ,#1454,(239) 458-5868"
-81.933913,26.670944,"Target - Cape Coral North,","1890 NE Pine Island Road,Cape Coral,FL,33909 ,#2316,(239) 829-2639"
-86.543075,34.676431,"Target - Huntsville South,","2750 Carl T Jones Dr SE,Huntsville,AL,35802 ,#1367,(256) 650-3491"
-86.972221,34.561677,"Target - Decatur,","1235 Point Mallard Pkwy SE,Decatur,AL,35601 ,#2084,(256) 898-3036"
-87.124248,37.720582,"Target - Owensboro,","5151 Frederica St,Owensboro,KY,42301 ,#0757,(270) 686-7033"
-86.437761,36.950955,"Target - Bowling Green,","160 American Ave,Bowling Green,KY,42104 ,#0958,(270) 842-0013"
-76.514462,38.299243,"Target - Lexington Park,","45155 First Colony Way,California,MD,20619 ,#1258,(301) 862-5003"
-104.991638,39.745211,"Target - Denver Downtown,","1600 California St,Denver,CO,80202 ,#3279,(303) 222-7520"
-104.858819,39.408023,"Target - Castle Rock,","5010 Founders Pkwy,Castle Rock,CO,80108 ,#1326,(303) 663-4322"
-80.601212,40.056215,"Target - Wheeling,","300 Cabela Dr,Triadelphia,WV,26059 ,#2231,(304) 547-2980"
-80.143353,25.970786,"Target - Aventura,","21265 Biscayne Blvd,Aventura,FL,33180 ,#1074,(305) 933-4616"
-80.158219,25.906676,"Target - North Miami,","14075 Biscayne Blvd,North Miami Beach,FL,33181 ,#1038,(305) 944-5341"
-106.270199,42.846972,"Target - Casper,","401 SE Wyoming Blvd,Casper,WY,82609 ,#0164,(307) 265-8214"
-90.387242,40.975154,"Target - Galesburg,","1071 W Carl Sandburg Dr,Galesburg,IL,61401 ,#0891,(309) 344-3211"
-118.346859,33.825343,"Target - Torrance,","3433 Sepulveda Blvd,Torrance,CA,90505 ,#0200,(310) 214-1561"
-118.315175,33.886734,"Target - Gardena,","2169 W Redondo Beach Blvd,Gardena,CA,90247 ,#0290,(310) 327-0762"
-118.285881,33.808539,"Target - Carson,","651 W Sepulveda Blvd,Carson,CA,90745 ,#2328,(310) 507-0020"
-118.292881,33.759942,"Target - San Pedro,","1701 N Gaffey St,San Pedro,CA,90731 ,#2470,(310) 507-6289"
-118.395823,33.888901,"Target - Manhattan Beach,","1200 N Sepulveda Blvd,Manhattan Beach,CA,90266 ,#0199,(310) 546-5601"
-118.332618,33.945636,"Target - Inglewood,","3471 W Century Blvd,Inglewood,CA,90301 ,#1329,(310) 677-2436"
-118.218075,33.879635,"Target - Compton-Rancho Dom,","1621 S Alameda St,Compton,CA,90220 ,#2275,(310) 735-0096"
-118.356442,33.868654,"Target - Redondo Beach,","1601 Kingsdale Ave,Redondo Beach,CA,90278 ,#1980,(310) 750-0003"
-118.395569,33.985591,"Target - Culver City South,","6000 Sepulveda Blvd,Culver City,CA,90230 ,#2632,(310) 754-4614"
-118.264061,33.845301,"Target - Carson North,","20700 S Avalon Blvd,Carson,CA,90746 ,#2026,(310) 819-3011"
-118.395307,33.999889,"Target - Culver City,","10820 Jefferson Blvd,Culver City,CA,90230 ,#0198,(310) 839-5200"
-118.351076,33.901398,"Target - Los Angeles Lawndale,","14310 Hawthorne Blvd,Lawndale,CA,90260 ,#3336,(310) 844-1340"
-118.443441,34.062438,"Target - LA Westwood,","10861 Weyburn Ave,Los Angeles,CA,90024 ,#2774,(310) 893-2360"
-118.373323,34.021895,"Target - Los Angeles,","3535 S La Cienega Blvd,Los Angeles,CA,90016 ,#1306,(310) 895-1131"
-87.630765,41.869065,"Target - Chicago South Loop,","1154 S Clark St,Chicago,IL,60605 ,#1889,(312) 212-6300"
-87.655007,41.877737,"Target - Chicago West Loop,","1101 W Jackson Blvd,Chicago,IL,60607 ,#2781,(312) 279-3340"
-87.643205,41.903765,"Target - Chicago Larrabee,","1200 N Larrabee St,Chicago,IL,60610 ,#2613,(312) 470-8944"
-87.617121,41.89087,"Target - Chicago Streeterville,","401 E Illinois St,Chicago,IL,60611 ,#3207,(312) 894-1764"
-86.232521,39.936428,"Target - Carmel,","1600 E 151st,Carmel,IN,46032 ,#1063,(317) 815-0560"
-92.070875,32.498955,"Target - Monroe,","4103 Pecanland Mall Dr,Monroe,LA,71203 ,#1469,(318) 361-3781"
-118.224106,34.142394,"Target - Los Angeles Eagle Rock,","2626 Colorado Blvd,Los Angeles,CA,90041 ,#1408,(323) 258-1355"
-118.225005,34.122284,"Target - LA Glassell Park,","4211 N Eagle Rock Blvd,Los Angeles,CA,90065 ,#3262,(323) 474-3070"
-118.322418,33.923548,"Target - Hawthorne,","2700 W 120th St,Hawthorne,CA,90250 ,#2280,(323) 492-1000"
-118.374938,34.075906,"Target - LA Beverly,","8480 Beverly Blvd,Los Angeles,CA,90048 ,#2775,(323) 602-0637"
-118.344723,34.090591,"Target - West Hollywood,","7100 Santa Monica Blvd,West Hollywood,CA,90046 ,#1884,(323) 603-0004"
-118.150403,34.018803,"Target - Commerce,","5600 Whittier Blvd,Commerce,CA,90022 ,#0189,(323) 725-1121"
-118.3439,34.04984,"Target - Los Angeles Mid-City,","1302  S La Brea,Los Angeles,CA,90019 ,#3294,(323) 801-0965"
-118.344224,34.066228,"Target - Los Angeles,","415 S La Brea Ave,Los Angeles,CA,90036 ,#3359,(323) 801-2401"
-81.432292,40.860521,"Target - Canton,","5584 Dressler Rd NW,North Canton,OH,44720 ,#0794,(330) 494-2153"
-92.050313,30.158191,"Target - Lafayette,","4313 Ambassador Caffery Pkwy,Lafayette,LA,70508 ,#1473,(337) 406-2536"
-82.157651,29.174561,"Target - Ocala,","2000 SW College Rd,Ocala,FL,34474 ,#0873,(352) 629-1333"
-122.337504,48.464718,"Target - Burlington,","199 Cascade Mall Dr,Burlington,WA,98233 ,#0696,(360) 757-6737"
-84.348941,33.756909,"Target - Atlanta Edgewood,","1275 Caroline St NE,Atlanta,GA,30307 ,#1964,(404) 260-0200"
-111.070663,45.712115,"Target - Bozeman,","2550 Catron Rd,Bozeman,MT,59718 ,#1237,(406) 582-9669"
-81.338398,28.671496,"Target - Casselberry,","4410 S Hwy 17 92,Casselberry,FL,32707 ,#0898,(407) 830-7979"
-121.813357,37.308249,"Target - San Jose East,","3155 Silver Creek Rd,San Jose,CA,95121 ,#2238,(408) 238-7800"
-121.846113,37.373587,"Target - San Jose Capitol,","450 N Capital Ave,San Jose,CA,95133 ,#1426,(408) 254-8931"
-121.918929,37.262894,"Target - San Jose West,","1811 Hillsdale Ave,San Jose,CA,95124 ,#0324,(408) 267-7900"
-121.841389,37.340821,"Target - San Jose Story Rd,","1750 Story Rd,San Jose,CA,95122 ,#1984,(408) 273-0054"
-121.649511,37.155241,"Target - Morgan Hill,","1061 Cochrane Rd,Morgan Hill,CA,95037 ,#2252,(408) 310-4050"
-121.906733,37.340591,"Target - San Jose College Park,","533 Coleman Ave,San Jose,CA,95110 ,#2088,(408) 346-2022"
-121.861142,37.250595,"Target - San Jose Oakridge,","879 Blossom Hill Rd,San Jose,CA,95123 ,#1927,(408) 513-3002"
-121.803267,37.250272,"Target - San Jose South,","5630 Cottle Rd,San Jose,CA,95123 ,#2605,(408) 600-3721"
-121.862974,37.305108,"Target - San Jose Central,","2161 Monterey Hwy,San Jose,CA,95125 ,#2281,(408) 660-1703"
-122.034719,37.375009,"Target - Sunnyvale,","298 W McKinley Ave,Sunnyvale,CA,94086 ,#2584,(408) 702-1012"
-122.037232,37.323068,"Target - Cupertino,","20745 Stevens Creek Blvd,Cupertino,CA,95014 ,#0323,(408) 725-2651"
-121.953789,37.418161,"Target - San Jose North,","95 Holger Way,San Jose,CA,95134 ,#2581,(408) 834-1527"
-121.550368,37.001262,"Target - Gilroy,","6705 Camino Arroyo,Gilroy,CA,95020 ,#1851,(408) 848-6466"
-121.989155,37.293899,"Target - San Jose Westgate,","1600 Saratoga Ave,San Jose,CA,95129 ,#1427,(408) 871-7984"
-121.874814,37.414722,"Target - San Jose Landess,","2155 Morrill Ave,San Jose,CA,95132 ,#0626,(408) 946-6791"
-76.454211,39.370177,"Target - White Marsh,","5230 Campbell Blvd,Nottingham,MD,21236 ,#1001,(410) 933-9632"
-122.491096,37.954544,"Target - San Rafael,","125 Shoreline Pkwy,San Rafael,CA,94901 .#2772,(415) 299-6122"
-122.403748,37.784792,"Target - San Francisco Central,","789 Mission St,San Francisco,CA,94103 ,#2766,(415) 343-6272"
-122.401243,37.790576,"Target - San Francisco CBD East,","225 Bush St,San Francisco,CA,94104 ,#3201,(415) 365-0844"
-122.483093,37.70068,"Target - Westlake,","100 Westlake Ctr,Daly City,CA,94015 ,#3353,(415) 466-1470"
-122.465422,37.726893,"Target - San Francisco Stonestown,","233 Winston Dr,San Francisco,CA,94132 ,#3264,(415) 680-2914"
-122.445793,37.781853,"Target - San Francisco West,","2675 Geary Blvd,San Francisco,CA,94118 ,#2768,(415) 796-5280"
-122.461135,37.725107,"Target - San Francisco South,","1830 Ocean Ave,San Francisco,CA,94112 ,#3203,(415) 840-0523"
-122.555228,38.089899,"Target - Novato,","200 Vintage Way,Novato,CA,94945 ,#0692,(415) 892-3313"
-122.51149,37.873886,"Target - Marin City,","180 Donahue St,Sausalito,CA,94965 ,#3240,(415) 944-5540"
-118.379292,34.044041,"Target - La Cienega,","1833 La Cienega Blvd,Los Angeles,CA,90035 ,#3347,(424) 361-3817"
-118.376297,33.774555,"Target - Rolling Hills,","43 Peninsula Ctr,Rolling Hills Estates,CA,90274 ,#3360,(424) 409-2004"
-118.4866321,34.028358,"Target - Santa Monica,","1610 Wilshire Blvd,Santa Monica,CA,90403 ,#3338,(424) 416-5730"
-118.395768,33.955581,"Target - Westchester,","8900 Sepulveda Blvd,Los Angeles,CA,90045 ,#3371,(424) 439-5000"
-118.459435,34.041737,"Target - LA Sawtelle,","11840 Santa Monica Blvd,Los Angeles,CA,90025 ,#3231,(424) 559-3327"
-117.383802,34.426467,"Target - Hesperia,","12795 Main St,Hesperia,CA,92345 ,#2468,(442) 949-3062"
-75.519592,40.048362,"Target - Malvern,","455 Carnegie Blvd,Malvern,PA,19355 ,#2537,(484) 913-3750"
-92.228243,34.790624,"Target - Little Rock North,","4000 McCain Blvd,North Little Rock,AR,72116 ,#0162,(501) 771-4220"
-122.279488,37.788757,"Target - Alameda,","2700 5th St,Alameda,CA,94501 ,#2829,(510) 214-0931"
-122.311113,37.987767,"Target - Pinole,","1400 Fitzgerald Dr,Pinole,CA,94564 ,#0737,(510) 222-0558"
-122.328251,37.932821,"Target - Richmond,","4500 Macdonald Ave,Richmond,CA,94805 ,#1507,(510) 253-1000"
-122.124011,37.701637,"Target - San Leandro Bayfair,","15555 E 14th St,San Leandro,CA,94578 ,#1428,(510) 276-2699"
-122.287572,37.829302,"Target - Oakland-Emeryville,","1555 40th St,Emeryville,CA,94608 ,#2767,(510) 285-0559"
-122.063413,37.607117,"Target - Hayward,","2499 Whipple Rd,Hayward,CA,94544 ,#1472,(510) 471-9166"
-122.28358,37.86949,"Target - Berkeley University Ave,","1414 University Ave,Berkeley,CA,94702 ,#3267,(510) 542-5346"
-122.120685,37.667087,"Target - Hayward North,","19661 Hersperian Blvd,Hayward,CA,94541 ,#2185,(510) 731-0001"
-122.264061,37.815643,"Target - Oakland,","2650 Broadway,Oakland,CA,94612 ,#3330,(510) 768-0188"
-121.970331,37.501586,"Target - Fremont South,","43950 Pacific Commons Blvd,Fremont,CA,94538 ,#2615,(510) 771-1616"
-121.984571,37.546406,"Target - Fremont Hub,","39201 Fremont Blvd,Fremont,CA,94538 ,#1422,(510) 795-6305"
-122.308035,37.884731,"Target - Albany,","1057 Eastshore Hwy,Albany,CA,94710 ,#1926,(510) 982-0512"
-122.266122,37.868896,"Target - Berkeley Central,","2187 Shattuck Ave,Berkeley,CA,94704 ,#3202,(510) 982-3726"
-97.952694,30.319623,"Target - Bee Cave,","3702 Ranch Rd 620 S,Bee Cave,TX,78738 ,#1812,(512) 651-0094"
-84.51634,39.1281,"Target - UC Calhoun St,","235 Calhoun St,Cincinnati,OH,45219 ,#3254,(513) 698-8161"
-84.364097,39.356637,"Target - West Chester Twp,","7644 Voice of America Center Dr,West Chester,OH,45069 ,#1534,(513) 712-1001"
-122.348738,40.585932,"Target - Redding,","1280 Dana Dr,Redding,CA,96003 ,#0615,(530) 223-0123"
-120.843666,38.710243,"Target - Placerville,","3968 Missouri Flat Rd,Placerville,CA,95667 ,#3355,(530) 303-5921"
-121.805475,39.727146,"Target - Chico,","1951 E 20th St,Chico,CA,95928 ,#0317,(530) 343-3770"
-121.722283,38.669956,"Target - Woodland,","2185 Bronze Star Dr,Woodland,CA,95776 ,#2408,(530) 665-4148"
-121.632779,39.145599,"Target - Yuba City,","1153 Butte House Rd,Yuba City,CA,95991 ,#0318,(530) 671-6881"
-121.697415,38.554296,"Target - Davis,","4601 2nd St,Davis,CA,95618 ,#2455,(530) 761-0126"
-121.095735,38.942428,"Target - Auburn,","2700 Bell Rd,Auburn,CA,95603 ,#1097,(530) 889-5650"
-77.511267,38.299405,"Target - Fredericksburg,","1180 Carl D Silver Pkwy,Fredericksburg,VA,22401 ,#0772,(540) 786-6800"
-119.770182,36.779706,"Target - Fresno South,","3173 E Shields Ave,Fresno,CA,93726 ,#0314,(559) 228-8471"
-119.847161,36.808459,"Target - Fresno West,","3150 W Shaw Ave,Fresno,CA,93711 ,#0275,(559) 275-7059"
-119.695573,36.803311,"Target - Clovis,","900 Shaw Ave,Clovis,CA,93612 ,#0358,(559) 297-4691"
-119.296791,36.358379,"Target - Visalia North,","3308 N Dinuba Blvd,Visalia,CA,93291 ,#2469,(559) 302-1850"
-119.724692,36.837731,"Target - Clovis NW,","695 W Herndon Ave,Clovis,CA,93612 ,#2018,(559) 321-0009"
-119.788561,36.846987,"Target - Blackstone and Nees Ave,","7600 N Blackstone Ave,Fresno,CA,93720 ,#0911,(559) 431-0104"
-119.788411,36.822758,"Target - Blackstone and Bullard,","5740 N Blackstone Ave,Fresno,CA,93710 ,#1417,(559) 431-8622"
-119.911287,36.834506,"Target - Fresno NW,","6655 N Riverside Dr,Fresno,CA,93722 ,#2744,(559) 490-5567"
-119.673145,36.325411,"Target - Hanford,","140 N 12th Ave,Hanford,CA,93230 ,#1906,(559) 582-9298"
-119.314366,36.225647,"Target - Tulare,","2195 E Prosperity Ave,Tulare,CA,93274 ,#2349,(559) 631-1128"
-119.047011,36.080002,"Target - Porterville,","1363 W Henderson Ave,Porterville,CA,93257 ,#2420,(559) 719-2203"
-119.314008,36.292397,"Target - Visalia,","4247 S Mooney Blvd,Visalia,CA,93277 ,#1805,(559) 749-0740"
-80.203678,26.354475,"Target - West Boca Raton,","21637 State Road 7,Boca Raton,FL,33428 ,#0638,(561) 483-3400"
-118.087933,33.858558,"Target - Cerritos West,","11525 South St,Cerritos,CA,90703 ,#1305,(562) 274-0063"
-118.166353,33.878151,"Target - Long Beach NW,","6750 Cherry Ave,Long Beach,CA,90805 ,#2424,(562) 295-2971"
-118.119595,33.775258,"Target - Long Beach Bixby,","5760 E 7th St,Long Beach,CA,90803 ,#3225,(562) 343-9142"
-117.997049,33.944551,"Target - Whittier,","15614 Whittwood Ln,Whittier,CA,90603 ,#2019,(562) 371-9003"
-118.106041,33.925652,"Target - Norwalk,","10600 Firestone Blvd,Norwalk,CA,90650 ,#1340,(562) 406-8870"
-118.074701,33.917331,"Target - Norwalk East,","12051 Imperial Hwy,Norwalk,CA,90650 ,#1424,(562) 409-5036"
-118.183046,33.816951,"Target - Signal Hill,","950 E 33rd St,Signal Hill,CA,90755 ,#2319,(562) 427-7751"
-118.125072,33.797337,"Target - Long Beach Bellflower,","2270 N Bellflower Blvd,Long Beach,CA,90815 ,#0195,(562) 493-5411"
-118.071764,33.781949,"Target - Seal Beach,","12300 Seal Beach Blvd,Seal Beach,CA,90740 ,#1328,(562) 596-9887"
-118.165656,33.948179,"Target - South Gate,","5700 Firestone Blvd,South Gate,CA,90280 ,#0190,(562) 806-2911"
-118.063229,33.847102,"Target - Cerritos,","20200 Bloomfield Ave,Cerritos,CA,90703 ,#0289,(562) 860-9909"
-118.138121,33.853646,"Target - Lakewood Center Mall,","141 Lakewood Center Mall,Lakewood,CA,90712 ,#1409,(562) 894-0019"
-118.046708,33.938621,"Target - Santa Fe Springs,","10621 Carmenita Rd,Santa Fe Springs,CA,90670 ,#0227,(562) 946-0851"
-118.085613,34.001889,"Target - Pico Rivera,","8800 Whittier Blvd,Pico Rivera,CA,90660 ,#1425,(562) 949-6200"
-89.581589,37.299797,"Target - Cape Girardeau,","202 Siemens Dr,Cape Girardeau,MO,63701 ,#0992,(573) 339-1778"
-112.046463,33.507828,"Target - Phoenix Uptown Camelback,","1625 E camelback Rd,Phoenix,AZ,85016 ,#3261,(602) 603-7581"
-76.485891,42.483755,"Target - Lansing,","40 Catherwood Rd,Ithaca,NY,14850 ,#1508,(607) 257-3387"
-75.408797,40.045416,"Target - Devon,","704 W Lancaster Ave,Wayne,PA,19087 ,#3310,(610) 263-4744"
-75.291623,40.102702,"Target - Plymouth Meeting,","2250 Chemical Rd,Plymouth Meeting,PA,19462 ,#1269,(610) 276-0042"
-85.616918,42.844861,"Target - Grand Rapids South,","1925 Market Place Dr SE,Caledonia,MI,49316 ,#2015,(616) 698-1026"
-71.118482,42.388446,"Target - Cambridge Porter Square,","822 Somerville Ave,Cambridge,MA,02140 ,#3304,(617) 702-1786"
-72.102646,42.364574,"Target - Cambridge Central Sq,","564 Massachusetts Ave,Cambridge,MA,02139 ,#3222,(617) 914-8262"
-116.966531,32.650746,"Target - Chula Vista East,","910 Eastlake Pkwy,Chula Vista,CA,91914 ,#1815,(619) 213-1010"
-117.211565,32.753465,"Target - Sports Arena,","3245 Sports Arena Blvd,San Diego,CA,92110 ,#0201,(619) 223-2491"
-117.010811,32.713264,"Target - Spring Valley,","935 Sweetwater Rd,Spring Valley,CA,91977 ,#3319,(619) 415-0294"
-117.079483,32.604985,"Target - Chula Vista Broadway,","1240 Broadway,Chula Vista,CA,91911 ,#0203,(619) 425-3850"
-116.960281,32.807926,"Target - El Cajon,","250 Broadway,El Cajon,CA,92021 ,#0304,(619) 442-9641"
-116.983473,32.841007,"Target - Santee,","9846 Mission Gorge Rd,Santee,CA,92071 ,#1485,(619) 449-9790"
-117.009645,32.779672,"Target - Grossmont,","5500 Grossmont Ctr Dr,La Mesa,CA,91942 ,#0997,(619) 461-1960"
-117.052485,32.743386,"Target - Lemon Grove,","3424 College Ave,San Diego,CA,92115 ,#1846,(619) 471-0025"
-117.150075,32.769757,"Target - San Diego Mission Valley,","1288 Camino Del Rio N,San Diego,CA,92108 ,#1410,(619) 542-0025"
-116.938639,32.740627,"Target - Rancho San Diego,","2911 Jamacha Rd,El Cajon,CA,92019 ,#1140,(619) 660-2948"
-117.129465,32.727007,"Target - San Diego South Park,","3030 Grape St,San Diego,CA,92102 ,#3205,(619) 684-7086"
-117.068288,32.656505,"Target - National City Plza Bonita,","3060 Plaza Bonita Rd,National City,CA,91950 ,#2232,(619) 791-2749"
-117.248489,32.745644,"Target - Ocean Beach,","4864 Newport Ave,San Diego,CA,92107 ,#3303,(619) 881-1380"
-117.129475,32.747855,"Target - San Diego North Park,","3029 University Ave,San Diego,CA,92104 ,#3302,(619) 881-3036"
-118.071553,34.075467,"Target - Rosemead,","3600 Rosemead Blvd,Rosemead,CA,91770 ,#1411,(626) 280-8024"
-117.983336,34.139422,"Target - Duarte,","1050 Huntington Dr,Duarte,CA,91010 ,#0302,(626) 303-8858"
-118.146381,34.090474,"Target - Alhambra,","2120 W Main St,Alhambra,CA,91801 ,#0184,(626) 308-3290"
-118.134158,34.147622,"Target - Pasadena,","777 E Colorado Blvd,Pasadena,CA,91101 ,#0883,(626) 584-1606"
-118.085824,34.146351,"Target - Pasadena East,","3121 E Colorado Blvd,Pasadena,CA,91107 ,#1332,(626) 584-2931"
-117.907623,34.136518,"Target - Azusa,","809 N Azusa Ave,Azusa,CA,91702 ,#2627,(626) 629-1121"
-117.912882,34.034647,"Target - West Covina South,","2370 S Azusa Ave,West Covina,CA,91792 ,#2147,(626) 667-5400"
-117.979581,34.069441,"Target - Baldwin Park,","3100 Baldwin Park Blvd,Baldwin Park,CA,91706 ,#1033,(626) 851-9404"
-117.883436,34.073074,"Target - West Covina,","2831 E Eastland Ctr Dr,West Covina,CA,91791 ,#1028,(626) 859-0221"
-117.919345,33.990381,"Target - Puente Hills,","17751 Colima Rd,Rowland Heights,CA,91748 ,#0222,(626) 913-2880"
-122.415239,37.769074,"Target - San Francisco Folsom,","1690 Folsom St,San Francisco,CA,94103 ,#3297,(628) 263-3723"
-122.284485,37.559617,"Target - San Mateo Fashion Island,","2220 Bridgepointe Pkwy,San Mateo,CA,94404 ,#1122,(650) 341-0734"
-122.217958,37.473986,"Target - Redwood City,","2485 El Camino Real,Redwood City,CA,94063 ,#0321,(650) 363-8940"
-122.137398,37.45895,Target - East Palo Alto,"1775 E Bayshore Rd,East Palo Alto,CA,94303 ,#3265,(650) 388-7949"
-122.470983,37.669346,"Target - Daly City Serramonte,","133 Serramonte Ctr,Daly City,CA,94015 ,#1407,(650) 755-2393"
-122.419969,37.635302,"Target - Tanforan,","1150 El Camino Real,San Bruno,CA,94066 ,#1054,(650) 827-0171"
-122.107344,37.401021,"Target - Mountain View,","555 Showers Dr,Mountain View,CA,94040 ,#0322,(650) 965-7764"
-122.465718,37.672623,"Target - Colma,","5001 Junipero Serra Blvd,Colma,CA,94014 ,#0320,(650) 992-8433"
-117.884277,33.839123,"Target - Anaheim East,","2222 E Lincoln Ave,Anaheim,CA,92806 ,#3274,(657) 276-3773"
-118.560543,34.419337,"Target - Valencia,","24425 Magic Mountain Pkwy,Valencia,CA,91355 ,#0257,(661) 254-8001"
-118.147468,34.599289,"Target - Palmdale,","39440 10th St W,Palmdale,CA,93551 ,#0685,(661) 265-0906"
-119.104461,35.383636,"Target - Bakersfield NW,","9100 Rosedale Hwy,Bakersfield,CA,93312 ,#1384,(661) 589-0554"
-119.037185,35.339231,"Target - Bakersfield Central,","2901 Ming Ave,Bakersfield,CA,93304 ,#2524,(661) 617-2000"
-119.121527,35.350027,"Target - Bakersfield West,","11000 Stockdale Hwy,Bakersfield,CA,93311 ,#2715,(661) 617-3657"
-118.955559,35.394727,"Target - Bakersfield NE,","3401 Mall View Rd,Bakersfield,CA,93306 ,#0614,(661) 872-9929"
-118.148051,34.673573,"Target - Lancaster,","43525 10th St W,Lancaster,CA,93534 ,#0245,(661) 949-8584"
-118.465502,34.395781,"Target - Santa Clarita East,","19105 Golden Valley Rd,Santa Clarita,CA,91387 ,#2030,(661) 977-5154"
-118.047777,34.572975,"Target - Palmdale East,","38019 47Th St E,Palmdale,CA,93552 ,#2350,(661) 998-2500"
-122.011353,37.32349,"Target - Cupertino Main St,","19499 Stevens Creek Blvd,Cupertino,CA,95014 ,#3224,(669) 230-8080"
-121.958993,37.352192,"Target - Santa Clara,","2004 El camino Real,Santa Clara,CA,95050 ,#2830,(669) 342-3320"
-84.456232,34.237061,"Target - Canton,","2022 Cumming Hwy,Canton,GA,30115 ,#2476,(678) 880-4311"
-115.309319,36.114942,"Target - Las Vegas Far SW,","4155 S Grand Canyon Dr,Las Vegas,NV,89147 ,#1524,(702) 251-0330"
-115.207011,36.270939,"Target - Las Vegas North Decatur,","6371 N Decatur Blvd,Las Vegas,NV,89130 ,#2569,(702) 515-8540"
-122.274633,38.282459,"Target - Napa,","205 Soscol Ave,Napa,CA,94559 ,#1026,(707) 224-1058"
-122.307195,38.322866,"Target - Napa North,","4000 Bel Aire Plaza,Napa,CA,94558 ,#1438,(707) 225-3016"
-122.068032,38.247752,"Target - Fairfield,","2059 Cadenasso Dr,Fairfield,CA,94533 ,#0675,(707) 426-1105"
-124.145093,40.806268,"Target - Eureka,","2525 4th St,Eureka,CA,95501 ,#1421,(707) 442-0201"
-121.963092,38.360785,"Target - Vacaville,","3000 Harbison Dr,Vacaville,CA,95687 ,#0827,(707) 452-8053"
-122.713269,38.418547,"Target - Santa Rosa South,","1980 Santa Rosa Ave,Santa Rosa,CA,95407 ,#0937,(707) 575-0665"
-122.719183,38.348425,"Target - Rohnert Park,","475 Rohnert Park Expy W,Rohnert Park,CA,94928 ,#0852,(707) 586-2901"
-122.731308,38.45912,"Target - Santa Rosa North,","950 Coddington Center,Santa Rosa,CA,95401 ,#2804,(707) 596-5587"
-122.223521,38.132649,"Target - Vallejo,","904 Admiral Callaghan Ln,Vallejo,CA,94591 ,#0331,(707) 642-0419"
-122.630759,38.243689,"Target - Petaluma,","401 Kenilworth Dr,Petaluma,CA,94952 ,#2601,(707) 775-6322"
-87.744499,41.656503,"Target - Crestwood,","5071 Cal Sag Rd,Crestwood,IL,60445 ,#0868,(708) 385-9722"
-87.742107,41.761967,"Target - Bedford Park,","7100 S Cicero Ave,Chicago,IL,60629 ,#0841,(708) 563-9050"
-118.014286,33.803073,"Target - Cypress,","6835 Katella Ave,Cypress,CA,90630 ,#0229,(714) 220-2000"
-117.961066,33.877253,"Target - West Fullerton,","1893 W Malvern Ave,Fullerton,CA,92833 ,#1383,(714) 278-1024"
-117.828381,33.699751,"Target - Tustin,","2300 Park Ave,Tustin,CA,92782 ,#2151,(714) 361-2100"
-117.941672,33.831021,"Target - Anaheim,","101 S Euclid St,Anaheim,CA,92802 ,#2421,(714) 422-1120"
-117.957607,33.917086,"Target - La Habra,","1000 W Imperial Hwy,La Habra,CA,90631 ,#2397,(714) 459-6034"
-117.888333,33.760212,"Target - Santa Ana NW,","1441 W 17th St,Santa Ana,CA,92706 ,#1936,(714) 481-0030"
-117.955182,33.761311,"Target - Brookhurst,","13831 Brookhurst St,Garden Grove,CA,92843 ,#0193,(714) 534-2142"
-117.850005,33.759745,"Target - Santa Ana,","1330 E 17th St,Santa Ana,CA,92705 ,#0286,(714) 541-4593"
-117.876939,33.888872,"Target - Fullerton Yorba Linda,","2920 Yorba Linda Blvd,Fullerton,CA,92831 ,#0293,(714) 579-3090"
-117.885763,33.701973,"Target - Santa Ana,","3300 S Bristol St,Santa Ana,CA,92704 ,#0250,(714) 641-4944"
-118.008341,33.745539,"Target - Westminster NW,","200 Westminster Mall,Westminster,CA,92683 ,#2304,(714) 657-1351"
-117.999683,33.858771,"Target - Buena Park,","7530 Orangethorpe Ave,Buena Park,CA,90621 ,#2082,(714) 676-0013"
-117.788325,33.728283,"Target - Irvine North,","13200 Jamboree Rd,Irvine,CA,92602 ,#1238,(714) 838-1209"
-117.988915,33.725189,"Target - Westminster,","16400 Beach Blvd,Westminster,CA,92683 ,#0249,(714) 841-4449"
-117.956188,33.672145,"Target - Huntington Beach East,","9882 Adams Ave,Huntington Beach,CA,92646 ,#2051,(714) 849-1814"
-117.748728,33.868481,"Target - Anaheim Hills,","8148 E Santa Ana Canyon Rd,Anaheim,CA,92808 ,#0677,(714) 921-9091"
-117.8255,33.78726,"Target - East Orange,","2620 E Chapman Ave,Orange,CA,92869 ,#3258,(714) 923-1766"
-117.914615,33.787164,"Target - Garden Grove Harbor,","12100 Harbor Blvd,Garden Grove,CA,92840 ,#0192,(714) 971-4826"
-117.835842,33.824728,"Target - Orange,","2191 N Tustin St,Orange,CA,92865 ,#0230,(714) 974-2800"
-117.919062,33.681887,"Target - Costa Mesa,","3030 Harbor Blvd,Costa Mesa,CA,92626 ,#1293,(714) 979-0372"
-117.888175,33.917936,"Target - Brea,","855 E Birch St,Brea,CA,92821 ,#2482,(714) 989-5013"
-117.926284,33.859283,"Target - Fullerton South,","200 W Orangethorpe Ave,Fullerton,CA,92832 ,#1418,(714) 992-4565"
-77.159635,40.196229,"Target - Carlisle,","246 Westminster Dr,Carlisle,PA,17013 ,#2099,(717) 243-3887"
-76.204812,40.025037,"Target - Lancaster East,","2385 Covered Bridge Dr,Lancaster,PA,17602 ,#2072,(717) 390-8727"
-77.009494,40.246815,"Target - Mechanicsburg,","6416 Carlisle Pike,Mechanicsburg,PA,17050 ,#2202,(717) 796-5780"
-76.311865,40.065843,"Target - Lancaster Central,","1589 Fruitville Pike,Lancaster,PA,17601 ,#2867,(717) 874-2064"
-104.778973,38.905627,"Target - Colorado Springs North,","5240 N Academy Blvd,Colorado Springs,CO,80918 ,#0154,(719) 594-9600"
-80.308607,40.678473,"Target - Center Twp,","87 Wagner Rd,Monaca,PA,15061 ,#2100,(724) 728-7258"
-83.473189,42.322421,"Target - Canton,","43670 Ford Rd,Canton,MI,48187 ,#0354,(734) 454-1133"
-83.502868,42.267991,"Target - Canton South,","47330 Michigan Ave,Canton,MI,48188 ,#2415,(734) 714-2012"
-83.679805,42.234335,"Target - Ann Arbor East,","3749 Carpenter Rd,Ypsilanti,MI,48197 ,#1285,(734) 975-4396"
-82.620861,39.731167,"Target - Lancaster,","1300 River Valley Blvd,Lancaster,OH,43130 ,#0990,(740) 681-1012"
-118.34799,34.16917,"Target - LA Burbank West,,","1033 N Hollywood Way,Burbank,CA,91505 ,#3251,,(747) 241-5032"
-76.235463,36.656661,"Target - Hillcrest,","233 Carmichael Way,Chesapeake,VA,23322 ,#2203,(757) 421-6640"
-117.228136,33.132718,"Target - Vista South,","3150 Business Park Dr,Vista,CA,92081 ,#2165,(760) 208-6111"
-117.220832,34.526545,"Target - Apple Valley North,","20288 US Hwy 18,Apple Valley,CA,92307 ,#2260,(760) 240-7654"
-117.245282,34.470837,"Target - Apple Valley,","19201 Bear Valley Rd,Apple Valley,CA,92308 ,#0939,(760) 247-4111"
-116.481963,33.788373,"Target - Palm Springs,","67750 E Palm Canyon Dr,Cathedral City,CA,92234 ,#0307,(760) 321-7425"
-116.401918,33.726709,"Target - Palm Desert,","72549 Hwy 111,Palm Desert,CA,92260 ,#0940,(760) 341-9307"
-115.568623,32.814609,"Target - El Centro,","2295 N Imperial Ave,El Centro,CA,92243 ,#1816,(760) 482-5400"
-117.100074,33.114503,"Target - Escondido,","1280 Auto Park Way,Escondido,CA,92029 ,#0274,(760) 489-6119"
-116.289849,33.710233,"Target - La Quinta,","78935 US Hwy 111,La Quinta,CA,92253 ,#1867,(760) 564-0492"
-117.263769,33.063949,"Target - Encinitas,","1010 N El Camino Real,Encinitas,CA,92024 ,#1029,(760) 633-1406"
-117.293282,33.246906,"Target - Oceanside East,","443 College Blvd,Oceanside,CA,92057 ,#2871,(760) 666-6778"
-117.067536,33.068972,"Target - Escondido South,","280  E Via Rancho Pkwy,Escondido,CA,92025 ,#2802,(760) 705-9019"
-117.215574,33.170303,"Target - Vista,","1751 University Dr,Vista,CA,92083 ,#1040,(760) 941-0220"
-117.328109,33.184925,"Target - Oceanside,","2255 S El Camino Real,Oceanside,CA,92054 ,#0303,(760) 967-8335"
-93.198465,45.572836,"Target - Cambridge,","215 Balsam St N,Cambridge,MN,55008 ,#1303,(763) 689-3858"
-85.073611,33.560385,"Target - Carrollton,","1129 S Park St,Carrollton,GA,30117 ,#1073,(770) 838-9221"
-87.684636,41.929807,"Target - Chicago Near North,","2656 N Elston Ave,Chicago,IL,60647 ,#0942,(773) 252-1994"
-87.745229,41.975328,"Target - Mayfair,","4631 Foster Ave,Chicago,IL,60630 ,#3314,(773) 272-3405"
-87.593157,41.799815,"Target - Chicago Hyde Park,","1346 E 53rd St,Chicago,IL,60615 ,#3219,,(773) 358-4139"
-87.723502,41.812429,"Target - Chicago South Pulaski,","4433 S Pulaski Rd,Chicago,IL,60632 ,#1879,(773) 579-2120"
-87.656582,41.963546,"Target - Chicago Wilson Yard,","4466 N Broadway St,Chicago,IL,60640 ,#2373,(773) 596-2376"
-87.643178,41.921654,"Target - Lincoln Park,","555 W Webster Ave,Chicago,IL,60614 ,#3349,(773) 598-1125"
-87.651088,41.940373,"Target - Chicago Lakeview Belmont Sta,","3204 N Clark St,Chicago,IL,60657 ,#3208,(773) 598-2480"
-87.66918,41.94214,"Target - Chicago Lakeview Ashland,","3300 N Ashland Ave,Chicago,IL,60657 ,#3214,(773) 598-2532"
-87.670086,41.903577,"Target - Chicago Wicker Park,","1664 W Division St,Chicago,IL,60622 ,#3307,(773) 598-2638"
-87.701786,41.946533,"Target - Chicago Mid North,","2939 W Addison St,Chicago,IL,60618 ,#1437,(773) 604-7680"
-87.700478,41.847176,"Target - Logan Square,","2434 N Sacramento Ave,Chicago,IL,60647 ,#3317,(773) 634-2396"
-87.661003,41.999245,"Target - Chicago Rogers Park,","6422 N Sheridan,Chicago,IL,60626 ,#3272,(773) 681 5154"
-87.683655,41.990776,"Target - Chicago Peterson Ave,","2112 W Peterson Ave,Chicago,IL,60659 ,#2079,(773) 761-3001"
-87.644409,41.930966,"Target - Chicago Lincoln Park North,","2650 N Clark St,Chicago,IL,60614 ,#3221,(773) 799-9142"
-87.788164,41.930836,"Target - Chicago Brickyard,","6525 W Diversey Ave,Chicago,IL,60707 ,#1924,(773) 804-3610"
-87.674293,41.834159,"Target - Chicago McKinley Park,","1940 W 33rd St,Chicago,IL,60608 ,#2078,(773) 843-3250"
-119.778096,39.100753,"Target - Carson City,","910 Jacks Valley Rd,Carson City,NV,89705 ,#1239,(775) 267-5151"
-71.07038,42.360826,"Target - Burlington,","34 Cambridge St,Burlington,MA,01803 ,#3305,(781) 313-8215"
-111.814498,40.377086,"Target - American Fork,","608 W Main St,American Fork,UT,84003 ,#1814,(801) 756-5449"
-120.696802,35.584524,"Target - Paso Robles,","2305 Theatre Dr,Paso Robles,CA,93446 ,#1120,(805) 227-0105"
-119.178701,34.242847,"Target - Oxnard West,","2850 N Oxnard Blvd,Oxnard,CA,93036 ,#2760,(805) 288-3642"
-119.072005,34.216057,"Target - Camarillo,","209 W Ventura Blvd,Camarillo,CA,93010 ,#1027,(805) 384-0040"
-118.799517,34.273004,"Target - Simi Valley West,","51 Tierra Rejada Rd,Simi Valley,CA,93065 ,#2462,(805) 416-5790"
-118.936103,34.191632,"Target - Thousand Oaks,","2705 Teller Rd,Thousand Oaks,CA,91320 ,#1100,(805) 480-9114"
-118.867053,34.280029,"Target - Moorpark,","800 New Los Angeles Ave,Moorpark,CA,93021 ,#1547,(805) 530-0028"
-119.247468,34.270687,"Target - Ventura West,","245 S Mills Rd,Ventura,CA,93003 ,#2398,(805) 535-2752"
-118.739385,34.279141,"Target - Simi Valley,","2907 Cochran St,Simi Valley,CA,93065 ,#0246,(805) 583-8933"
-119.237335,34.262922,"Target - Ventura,","4200 E Main St,Ventura,CA,93003 ,#0298,(805) 644-9871"
-120.686472,35.251547,"Target - San Luis Obispo,","11990 Los Osos Valley Rd,San Luis Obispo,CA,93405 ,#2759,(805) 858-9902"
-120.432976,34.921893,"Target - Santa Maria,","223 E Betteravia Rd,Santa Maria,CA,93454 ,#0309,(805) 922-9904"
-119.751982,34.439242,"Target - Santa Barbara Galleria,","3891 State St,Santa Barbara,CA,93105 ,#3298,(805) 979-3115"
-119.867566,34.429641,"Target - Goleta,","6865 Hollister Ave,Goleta,CA,93117 ,#2872,(805) 979-3525"
-88.722888,41.955134,"Target - DeKalb,","2555 Sycamore Rd,Dekalb,IL,60115 ,#2559,(815) 787-6970"
-97.354517,32.754477,"Target - Fort Worth Central,","301 Carroll St,Fort Worth,TX,76107 ,#2042,(817) 302-0290"
-118.333112,34.191631,"Target - Burbank,","1800 W Empire Ave,Burbank,CA,91504 ,#1362,(818) 238-0132"
-118.259255,34.146716,"Target - Glendale,","2195 Glendale Galleria,Glendale,CA,91210 ,#2307,(818) 334-1400"
-118.502368,34.273718,"Target - Granada Hills,","11133 Balboa Blvd,Granada Hills,CA,91344 ,#2329,(818) 360-2999"
-118.794393,34.149635,"Target - Westlake Village,","30740 Russell Ranch Rd,Westlake Village,CA,91362 ,#2810,(818) 661-2631"
-118.585899,34.166649,"Target - Woodland Hills,","20801 Ventura Blvd,Woodland Hills,CA,91364 ,#0288,(818) 713-2707"
-118.46631,34.25849,"Target - Mission Hills,","10340 N Sepulveda Blvd,Mission Hills,CA,91345 ,#3218,(818) 741-1855"
-118.605711,34.191081,"Target - Los Angeles Topanga,","6700 Topanga Canyon Blvd,Canoga Park,CA,91303 ,#2143,(818) 746-9922"
-118.371985,34.186839,"Target - North Hollywood,","11051 Victory Blvd,North Hollywood,CA,91606 ,#0294,(818) 761-3083"
-118.562092,34.230431,"Target - Northridge,","8840 Corbin Ave,Northridge,CA,91324 ,#0299,(818) 772-0494"
-118.466346,34.174696,"Target - Van Nuys,","5711 Sepulveda Blvd,Van Nuys,CA,91411 ,#1307,(818) 779-0163"
-118.418153,34.245339,"Target - Pacoima,","9725 Laurel Canyon Blvd,Pacoima,CA,91331 ,#0183,(818) 896-8214"
-118.460726,34.213454,"Target - Van Nuys North,","14920 Raymer St,Van Nuys,CA,91405 ,#1309,(818) 922-1001"
-118.502767,34.233752,"Target - Sherwood Forest,","8999 Balboa Blvd,Northridge,CA,91325 ,#2020,(818) 924-9001"
-118.198891,34.205052,"Target - La Canada-Flintridge,","965 Town Ctr Dr,La Canada Flintridge,CA,91001 ,#3293,(818) 949-3422"
-118.627209,34.193554,"Target - West Hills,","6635 Fallbrook Ave,West Hills,CA,91307 ,#0228,(818) 999-2390"
-81.307951,35.702135,"Target - Hickory,","1910 Catawba Valley Blvd SE,Hickory,NC,28602 ,#1181,(828) 267-0032"
-121.967359,36.973849,"Target - Capitola,","1825 41st Ave,Capitola,CA,95010 ,#2795,(831) 227-2101"
-121.844267,36.619538,"Target - Sand City,","2040 California Ave,Sand City,CA,93955 ,#1062,(831) 392-1990"
-121.654624,36.715041,"Target - Salinas,","1640 N Main St,Salinas,CA,93906 ,#0676,(831) 442-0547"
-121.389358,36.836502,"Target - Hollister,","1790 Airline Hwy,Hollister,CA,95023 ,#0941,(831) 636-3722"
-121.775342,36.916968,"Target - Watsonville,","1415 Main St,Watsonville,CA,95076 ,#1143,(831) 761-9194"
-121.811071,36.666147,"Target - Marina,","133 General Stilwell Dr,Marina,CA,93933 ,#2306,(831) 883-5720"
-117.128763,33.020624,"Target - San Diego Del Sur,","17170 Camino Del Sur,San Diego,CA,92127 ,#2855,(858) 227-3918"
-117.178191,32.820461,"Target - Balboa,","5680 Balboa Ave,San Diego,CA,92111 ,#2465,(858) 309-6564"
-117.239713,32.875292,"Target - Price Ctr,","9500 Gilman Dr,La Jolla,CA,92093 ,#3369,(858) 410-0390"
-117.146852,32.912437,"Target - Mira Mesa,","8251 Mira Mesa Blvd,San Diego,CA,92126 ,#0305,(858) 530-1901"
-117.152696,32.817078,"Target - Kearny Mesa,","8001 Othello Ave,San Diego,CA,92111 ,#0205,(858) 576-1570"
-117.062071,32.981001,"Target - Poway,","14823 Pomerado Rd,Poway,CA,92064 ,#0296,(858) 679-8202"
-117.205684,34.070434,"Target - Redlands,","27320 W Lugonia Ave,Redlands,CA,92374 ,#1869,(909) 307-1602"
-117.433641,34.063221,"Target - Fontana,","16964 Slover Ave,Fontana,CA,92337 ,#0660,(909) 356-4242"
-117.292376,34.079454,"Target - Orange Show,","499 W Orange Show Rd,San Bernardino,CA,92408 ,#0188,(909) 381-3391"
-117.823473,34.106489,"Target - San Dimas,","888 W Arrow Hwy,San Dimas,CA,91773 ,#0767,(909) 394-0335"
-117.470845,34.150578,"Target - Fontana North,","15272 Summit Ave,Fontana,CA,92336 ,#1958,(909) 463-9872"
-117.719851,33.999495,"Target - Chino Hills,","3944 Grand Ave,Chino,CA,91710 ,#0912,(909) 465-5804"
-117.562753,34.077033,"Target - Ontario,","4200 E 4th St,Ontario,CA,91764 ,#2245,(909) 579-3040"
-117.760067,34.111452,"Target - Laverne,","2462 Foothill Blvd,La Verne,CA,91750 ,#0226,(909) 593-2421"
-117.819724,34.004462,"Target - Diamond Bar,","747 Grand Ave,Diamond Bar,CA,91765 ,#2179,(909) 610-2149"
-117.691021,34.088835,"Target - Montclair,","9052 Central Ave,Montclair,CA,91763 ,#1423,(909) 624-5717"
-117.683241,34.033458,"Target - Chino,","5555 Philadelphia St,Chino,CA,91710 ,#0258,(909) 627-8433"
-117.7561,34.033967,"Target - Pomona,","701 Rio Rancho Rd,Pomona,CA,91766 ,#2831,(909) 634-3151"
-117.571193,34.106711,"Target - Rancho Cucamonga,","10576 Foothill Blvd,Rancho Cucamonga,CA,91730 ,#0301,(909) 948-9952"
-117.639709,34.132026,"Target - Upland,","1931 Campus Ave,Upland,CA,91784 ,#1834,(909) 985-0348"
-121.302892,38.871435,"Target - Lincoln,","950 Groveland Ln,Lincoln,CA,95648 ,#2214,(916) 251-3002"
-121.202533,38.802272,"Target - Rocklin,","5104 Commons Dr,Rocklin,CA,95677 ,#2604,(916) 251-3345"
-121.350391,38.661522,"Target - Sacramento Madison,","5001 Madison Ave,Sacramento,CA,95841 ,#0311,(916) 348-3701"
-121.534496,38.551214,"Target - West Sacramento,","2005 Town Center Plz,West Sacramento,CA,95691 ,#2268,(916) 384-0977"
-121.498897,38.561866,"Target - Sacramento Riverside,","2505 Riverside Blvd,Sacramento,CA,95818 ,#0310,(916) 444-0993"
-121.401643,38.601555,"Target - Sacramento Arden,","1919 Fulton Ave,Sacramento,CA,95825 ,#0312,(916) 483-6093"
-121.284312,38.594409,"Target - Rancho Cordova,","10881 Olson Dr,Rancho Cordova,CA,95670 ,#2463,(916) 503-2512"
-121.426585,38.548434,"Target - Sacramento East,","6507 4th Ave,Sacramento,CA,95817 ,#2492,(916) 503-3678"
-121.415309,38.457576,"Target - Sacramento SW,","8101 Cosumnes River Blvd,Sacramento,CA,95823 ,#1527,(916) 525-3576"
-121.499622,38.639981,"Target - Sacramento Natomas,","3601 N Freeway Blvd,Sacramento,CA,95834 ,#2115,(916) 576-0487"
-121.063889,38.651411,"Target - El Dorado Hills,","4400 Town Center Blvd,El Dorado Hills,CA,95762 ,#2270,(916) 605-0184"
-121.414123,38.423581,"Target - Elk Grove,","7505 Laguna Blvd,Elk Grove,CA,95758 ,#1025,(916) 683-5356"
-121.289144,38.791426,"Target - Roseville North,","10451 Fairway Dr,Roseville,CA,95678 ,#1502,(916) 780-1020"
-121.254999,38.744441,"Target - Roseville,","1925 Douglas Blvd,Roseville,CA,95661 ,#0267,(916) 786-8787"
-121.273964,38.671988,"Target - Birdcage-Citrus Heights,","5837 Sunrise Blvd,Citrus Heights,CA,95610 ,#1121,(916) 966-5267"
-121.151999,38.670981,"Target - Folsom,","430 Blue Ravine Rd,Folsom,CA,95630 ,#1098,(916) 984-9131"
-78.738149,35.758521,"Target - Cary,","2021 Walnut St,Cary,NC,27511 ,#0961,(919) 233-4451"
-78.883358,35.84653,"Target - Cary West,","7129 O'Kelly Chapel Rd,Cary,NC,27519 ,#2784,(919) 674-2214"
-121.853223,37.706029,"Target - Dublin East,","2800 Dublin Blvd,Dublin,CA,94568 ,#2771,(925) 241-1042"
-121.963133,37.762772,"Target - San Ramon,","2610 Bishop Dr,San Ramon,CA,94583 ,#0949,(925) 277-0202"
-121.746527,37.700456,"Target - Livermore,","4300 Las Positas Rd,Livermore,CA,94551 ,#0828,(925) 606-1445"
-122.065927,37.977451,"Target - Pleasant Hill,","560 Contra Costa Blvd,Pleasant Hill,CA,94523 ,#0330,(925) 685-6069"
-121.739085,37.961841,"Target - Antioch Slatten Ranch,","5769 Lone Tree Way,Antioch,CA,94531 ,#1819,(925) 752-0002"
-121.839541,38.006243,"Target - Pittsburg,","4301 Century Blvd,Pittsburg,CA,94565 ,#0332,(925) 778-8950"
-121.929596,37.707261,"Target - Dublin,","7200 Amador Plaza Rd,Dublin,CA,94568 ,#0328,(925) 829-8900"
-122.063861,37.904991,"Target - Walnut Creek,","1871 N Main St,Walnut Creek,CA,94596 ,#1208,(925) 979-0083"
-117.671577,33.56271,"Target - Mission Viejo South,","27551 Puerta Real,Mission Viejo,CA,92691 ,#3315,(949) 317-5522"
-117.662876,33.676701,"Target - Foothill Ranch,","26762 Portola Pkwy,Foothill Ranch,CA,92610 ,#0913,(949) 454-2360"
-117.607593,33.462063,"Target - San Clemente,","990 Avenida Vista Hermosa,San Clemente,CA,92673 ,#2730,(949) 456-8668"
-117.595029,33.642081,"Target - Rancho Santa Margarita,","30602 Santa Margarita Pkwy,Rancho Santa Margarita,CA,92688 ,#0914,(949) 459-1543"
-117.659175,33.498243,"Target - San Juan Capistrano,","31874 Del Obispo St,San Juan Capistrano,CA,92675 ,#3366,(949) 538-4940"
-117.689513,33.606696,"Target - Mission Viejo,","24500 Alicia Pkwy,Mission Viejo,CA,92691 ,#0300,(949) 583-1298"
-117.707014,33.572263,"Target - Aliso Viejo,","26932 La Paz Rd,Aliso Viejo,CA,92656 ,#0259,(949) 643-0337"
-117.683672,33.622137,"Target - Mission Viejo North,","25601 Jeronimo Rd,Mission Viejo,CA,92691 ,#2163,(949) 680-1064"
-117.810833,33.685523,"Target - Irvine,","3750 Barranca Pkwy,Irvine,CA,92606 ,#0336,(949) 857-8337"
-117.737319,33.644649,"Target - Irvine Spectrum,","900 Spectrum Center Dr,Irvine,CA,92618 ,#2128,(949) 885-0114"
-117.839137,33.64894,"Target - Irvine University Town Ctr,","4255 Campus Dr,Irvine,CA,92612 ,#3233,(949) 988-6230"
-117.553988,33.975414,"Target - Eastvale,","12471 Limonite Ave,Mira Loma,CA,91752 ,#1961,(951) 256-5261"
-117.516539,33.824939,"Target - Corona,","2615 Tuscanny St,Corona,CA,92881 ,#1548,(951) 277-3075"
-117.458491,33.907984,"Target - Riverside,","3520 Tyler St,Riverside,CA,92503 ,#0212,(951) 351-8271"
-117.562829,33.900028,"Target - Norco,","1290 Hamner Ave,Norco,CA,92860 ,#0736,(951) 371-1872"
-117.187543,33.935822,"Target - Moreno Valley East,","27100 Eucalyptus Ave,Moreno Valley,CA,92555 ,#2309,(951) 571-8014"
-117.009094,33.747091,"Target - Hemet,","3527 W Florida Ave,Hemet,CA,92545 ,#0761,(951) 652-9585"
-117.341104,33.690781,"Target - Lake Elsinore,","18287 Collier Ave,Lake Elsinore,CA,92530 ,#2195,(951) 674-2620"
-117.146163,33.504693,"Target - Rancho California,","29676 Rancho California Rd,Temecula,CA,92591 ,#0359,(951) 676-2668"
-117.205741,33.567394,"Target - Murrieta,","41040 California Oaks Rd,Murrieta,CA,92562 ,#1283,(951) 696-7527"
-117.280957,33.939931,"Target - Riverside SE,","2755 Canyon Springs Pkwy,Riverside,CA,92507 ,#1843,(951) 697-6778"
-117.176807,33.600502,"Target - Murrieta North,","27818 Clinton Keith Rd,Murrieta,CA,92562 ,#2499,(951) 704-1123"
-117.175407,33.682281,"Target - Menifee,","30340 Haun Rd,Menifee,CA,92584 ,#2471,(951) 723-6151"
-117.382181,33.946526,"Target - Riverside Arlington,","3333 Arlington Ave,Riverside,CA,92506 ,#0291,(951) 784-6430"
-98.252784,26.242096,"Target - McAllen NW,","3600 Nolana Ave,McAllen,TX,78504 ,#2224,(956) 618-7700"
-98.213129,26.188474,"Target - McAllen,","708 E Expy 83,McAllen,TX,78503 ,#0824,(956) 682-2611"
-98.218545,26.269748,"Target - McAllen North,","7400 N 10th St,McAllen,TX,78504 ,#1490,(956) 994-1815"
-122.566083,45.576062,"Target - Portland NE,","9401 NE Cascades Pkwy,Portland,OR,97220 ,#2523,(971) 230-1930"
-96.958976,32.912721,"Target - Irving North,","7845 N Macarthur Blvd,Irving,TX,75063 ,#1032,(972) 506-9924"
