name,url,street_address,city,state,zip_code,country,phone_number_1,phone_number_2,fax_1,fax_2,email_1,email_2,website,open_hours,latitude,longitude,facebook,twitter,instagram,pinterest,youtube
Stockton Supercenter,https://www.walmart.com/store/1554/stockton-ca/details,3223 E Hammer Ln,Stockton,CA,95212,US,209-473-2796,,,,,,,"monday - friday : 06:00-24:00, saturday : 06:00-24:00, sunday : 06:00-24:00",38.023504,-121.273567,,,,,
El Centro Supercenter,https://www.walmart.com/store/1555/el-centro-ca/details,2150 N Waterman Ave,El Centro,CA,92243,US,760-337-1600,,,,,,,"monday - friday : 00:00-24:00, saturday : 00:00-24:00, sunday : 00:00-24:00",32.813411,-115.577324,,,,,
Lancaster Supercenter,https://www.walmart.com/store/1563/lancaster-ca/details,44665 Valley Central Way,Lancaster,CA,93536,US,661-940-8744,,,,,,,"monday - friday : 06:00-24:00, saturday : 06:00-24:00, sunday : 06:00-24:00",34.693755,-118.174112,,,,,
Oroville Supercenter,https://www.walmart.com/store/1575/oroville-ca/details,465 Cal Oak Rd,Oroville,CA,95965,US,530-534-1082,,,,,,,"monday - friday : 06:00-24:00, saturday : 06:00-24:00, sunday : 06:00-24:00",39.496607,-121.57343,,,,,
Madera Store,https://www.walmart.com/store/1583/madera-ca/details,1977 W Cleveland Ave,Madera,CA,93637,US,559-675-9212,,,,,,,"monday - friday : 07:00-23:00, saturday : 07:00-23:00, sunday : 07:00-23:00",36.975625,-120.08061,,,,,
Bakersfield Supercenter,https://www.walmart.com/store/1574/bakersfield-ca/details,6225 Colony St,Bakersfield,CA,93307,US,661-398-7297,,,,,,,"monday - friday : 06:00-24:00, saturday : 06:00-24:00, sunday : 06:00-24:00",35.298796,-119.029215,,,,,
Modesto Store,https://www.walmart.com/store/1587/modesto-ca/details,2225 Plaza Pkwy,Modesto,CA,95350,US,209-524-4733,,,,,,,"monday - friday : 06:00-24:00, saturday : 06:00-24:00, sunday : 06:00-24:00",37.673392,-121.037048,,,,,
Victorville Supercenter,https://www.walmart.com/store/1588/victorville-ca/details,11896 Amargosa Rd,Victorville,CA,92392,US,760-951-5005,,,,,,,"monday - friday : 05:00-24:00, saturday : 05:00-24:00, sunday : 05:00-24:00",34.465211,-117.354392,,,,,
Ridgecrest Supercenter,https://www.walmart.com/store/1600/ridgecrest-ca/details,201 East Bowman Road,Ridgecrest,CA,93555,US,760-371-4974,,,,,,,"monday - friday : 06:00-24:00, saturday : 06:00-24:00, sunday : 06:00-24:00",35.60703,-117.673342,,,,,
Red Bluff Supercenter,https://www.walmart.com/store/1608/red-bluff-ca/details,608 Luther Road,Red Bluff,CA,96080,US,530-529-5540,,,,,,,"monday - friday : 00:00-24:00, saturday : 00:00-24:00, sunday : 00:00-24:00",40.162188,-122.232418,,,,,
Pittsburg Store,https://www.walmart.com/store/1615/pittsburg-ca/details,2203 Loveridge Rd,Pittsburg,CA,94565,US,925-427-2022,,,,,,,"monday - friday : 07:00-24:00, saturday : 07:00-24:00, sunday : 07:00-24:00",38.009048,-121.868154,,,,,
Susanville Store,https://www.walmart.com/store/1616/susanville-ca/details,2900 Main St,Susanville,CA,96130,US,530-251-2000,,,,,,,"monday - friday : 06:00-22:00, saturday : 06:00-22:00, sunday : 06:00-22:00",40.409033,-120.637585,,,,,
Bakersfield Supercenter,https://www.walmart.com/store/1624/bakersfield-ca/details,2601 Fashion Place,Bakersfield,CA,93306,US,661-873-7120,,,,,,,"monday - friday : 06:00-24:00, saturday : 06:00-24:00, sunday : 06:00-24:00",35.391531,-118.960829,,,,,
Yreka Supercenter,https://www.walmart.com/store/1630/yreka-ca/details,1906 Fort Jones Rd,Yreka,CA,96097,US,530-842-7330,,,,,,,"monday - friday : 00:00-24:00, saturday : 00:00-24:00, sunday : 00:00-24:00",41.6986659,-122.6444711,,,,,
Hanford Supercenter,https://www.walmart.com/store/1645/hanford-ca/details,250 S 12th Ave,Hanford,CA,93230,US,559-583-6292,,,,,,,"monday - friday : 00:00-24:00, saturday : 00:00-24:00, sunday : 00:00-24:00",36.32181,-119.676372,,,,,
American Canyon Supercenter,https://www.walmart.com/store/1651/american-canyon-ca/details,7011 Main St,American Canyon,CA,94503,US,707-557-4393,,,,,,,"monday - friday : 00:00-24:00, saturday : 00:00-24:00, sunday : 00:00-24:00",38.182987,-122.252632,,,,,
Palmdale Supercenter,https://www.walmart.com/store/1660/palmdale-ca/details,40130 10th St W,Palmdale,CA,93551,US,661-267-6496,,,,,,,"monday - friday : 06:00-24:00, saturday : 06:00-24:00, sunday : 06:00-24:00",34.611652,-118.144492,,,,,
Redlands Store,https://www.walmart.com/store/1693/redlands-ca/details,2050 W Redlands Blvd,Redlands,CA,92373,US,909-798-9114,,,,,,,"monday - friday : 05:00-24:00, saturday : 05:00-24:00, sunday : 05:00-24:00",34.065136,-117.222895,,,,,
Colton Supercenter,https://www.walmart.com/store/1692/colton-ca/details,1120 S Mount Vernon Ave,Colton,CA,92324,US,909-783-0497,,,,,,,"monday - friday : 06:00-24:00, saturday : 06:00-24:00, sunday : 06:00-24:00",34.050112,-117.306233,,,,,
Elk Grove Store,https://www.walmart.com/store/1697/elk-grove-ca/details,8465 Elk Grove Blvd,Elk Grove,CA,95758,US,916-684-7100,,,,,,,"monday - friday : 06:00-24:00, saturday : 06:00-24:00, sunday : 06:00-24:00",38.411762,-121.391694,,,,,
Poway Supercenter,https://www.walmart.com/store/1700/poway-ca/details,13425 Community Road,Poway,CA,92064,US,858-486-1882,,,,,,,"monday - friday : 00:00-24:00, saturday : 00:00-24:00, sunday : 00:00-24:00",32.9589415,-117.0376617,,,,,
Vacaville Supercenter,https://www.walmart.com/store/1704/vacaville-ca/details,1501 Helen Power Dr,Vacaville,CA,95687,US,707-451-0166,,,,,,,"monday - friday : 06:00-24:00, saturday : 06:00-24:00, sunday : 06:00-24:00",38.36206,-121.958994,,,,,
Perris Supercenter,https://www.walmart.com/store/1747/perris-ca/details,1800 N Perris Blvd,Perris,CA,92571,US,951-940-0440,,,,,,,"monday - friday : 06:00-24:00, saturday : 06:00-24:00, sunday : 06:00-24:00",33.806034,-117.229378,,,,,
Rohnert Park Store,https://www.walmart.com/store/1755/rohnert-park-ca/details,4625 Redwood Dr,Rohnert Park,CA,94928,US,707-586-3717,,,,,,,"monday - friday : 06:00-24:00, saturday : 06:00-24:00, sunday : 06:00-24:00",38.367439,-122.71648,,,,,
Folsom Supercenter,https://www.walmart.com/store/1760/folsom-ca/details,1018 Riley St,Folsom,CA,95630,US,916-983-1090,,,,,,,"monday - friday : 00:00-24:00, saturday : 00:00-24:00, sunday : 00:00-24:00",38.668326,-121.167602,,,,,
Fontana Store,https://www.walmart.com/store/1756/fontana-ca/details,17251 Foothill Blvd,Fontana,CA,92335,US,909-355-6922,,,,,,,"monday - friday : 06:00-23:00, saturday : 06:00-23:00, sunday : 06:00-23:00",34.105588,-117.428136,,,,,
Lodi Supercenter,https://www.walmart.com/store/1789/lodi-ca/details,1601 S Lower Sacramento Rd,Lodi,CA,95242,US,209-368-6696,,,,,,,"monday - friday : 00:00-24:00, saturday : 00:00-24:00, sunday : 00:00-24:00",38.112985,-121.303278,,,,,
La Quinta Supercenter,https://www.walmart.com/store/1805/la-quinta-ca/details,79295 Us Hwy 111,La Quinta,CA,92253,US,760-564-3313,,,,,,,"monday - friday : 06:00-24:00, saturday : 06:00-24:00, sunday : 06:00-24:00",33.703645,-116.281073,,,,,
Fresno Supercenter,https://www.walmart.com/store/1815/fresno-ca/details,4080 W Shaw Ave,Fresno,CA,93722,US,559-550-7482,,,,,,,"monday - friday : 07:00-23:00, saturday : 07:00-23:00, sunday : 07:00-23:00",36.810606,-119.860333,,,,,
Visalia Store,https://www.walmart.com/store/1826/visalia-ca/details,1819 E Noble Ave,Visalia,CA,93292,US,559-636-2302,,,,,,,"monday - friday : 06:00-23:00, saturday : 06:00-23:00, sunday : 06:00-23:00",36.324329,-119.273131,,,,,
Palm Springs Supercenter,https://www.walmart.com/store/1832/palm-springs-ca/details,5601 E Ramon Rd,Palm Springs,CA,92264,US,760-322-3906,,,,,,,"monday - friday : 06:00-24:00, saturday : 06:00-24:00, sunday : 06:00-24:00",33.813069,-116.486956,,,,,
Manteca Supercenter,https://www.walmart.com/store/1840/manteca-ca/details,1205 S Main St,Manteca,CA,95337,US,209-824-2000,,,,,,,"monday - friday : 06:00-24:00, saturday : 06:00-24:00, sunday : 06:00-24:00",37.785539,-121.218572,,,,,
Hemet Supercenter,https://www.walmart.com/store/1853/hemet-ca/details,1231 S Sanderson Ave,Hemet,CA,92545,US,951-766-1164,,,,,,,"monday - friday : 06:00-24:00, saturday : 06:00-24:00, sunday : 06:00-24:00",33.72639,-117.009917,,,,,
Calexico Supercenter,https://www.walmart.com/store/1859/calexico-ca/details,2540 Rockwood Ave,Calexico,CA,92231,US,760-768-5013,,,,,,,"monday - friday : 00:00-24:00, saturday : 00:00-24:00, sunday : 00:00-24:00",32.697644,-115.496576,,,,,
Rialto Supercenter,https://www.walmart.com/store/1862/rialto-ca/details,1366 S Riverside Ave,Rialto,CA,92376,US,909-546-3491,,,,,,,"monday - friday : 06:00-24:00, saturday : 06:00-24:00, sunday : 06:00-24:00",34.0767,-117.3725,,,,,
Porterville Store,https://www.walmart.com/store/1877/porterville-ca/details,1250 W Henderson Ave,Porterville,CA,93257,US,559-783-8195,,,,,,,"monday - friday : 08:00-23:00, saturday : 08:00-23:00, sunday : 08:00-23:00",36.0834328,-119.0453125,,,,,
Barstow Supercenter,https://www.walmart.com/store/1879/barstow-ca/details,301 Montara Rd,Barstow,CA,92311,US,760-252-5000,,,,,,,"monday - friday : 06:00-24:00, saturday : 06:00-24:00, sunday : 06:00-24:00",34.882594,-116.991694,,,,,
Antelope Supercenter,https://www.walmart.com/store/1881/antelope-ca/details,7901 Watt Ave,Antelope,CA,95843,US,916-332-3173,,,,,,,"monday - friday : 07:00-23:00, saturday : 07:00-23:00, sunday : 07:00-23:00",38.712775,-121.394667,,,,,
Selma Supercenter,https://www.walmart.com/store/1882/selma-ca/details,3400 Floral Ave,Selma,CA,93662,US,559-891-7190,,,,,,,"monday - friday : 05:00-24:00, saturday : 05:00-24:00, sunday : 05:00-24:00",36.577321,-119.634423,,,,,
Riverside Supercenter,https://www.walmart.com/store/1899/riverside-ca/details,6250 Valley Springs Pkwy,Riverside,CA,92507,US,951-653-4849,,,,,,,"monday - friday : 06:00-24:00, saturday : 06:00-24:00, sunday : 06:00-24:00",33.938582,-117.286158,,,,,
Yuba City Supercenter,https://www.walmart.com/store/1903/yuba-city-ca/details,1150 Harter Rd,Yuba City,CA,95993,US,530-751-0130,,,,,,,"monday - friday : 00:00-24:00, saturday : 00:00-24:00, sunday : 00:00-24:00",39.144796,-121.653902,,,,,
Crescent City Supercenter,https://www.walmart.com/store/1910/crescent-city-ca/details,900 E Washington Blvd,Crescent City,CA,95531,US,707-464-1198,,,,,,,"monday - friday : 00:00-24:00, saturday : 00:00-24:00, sunday : 00:00-24:00",41.774985,-124.189935,,,,,
Corona Supercenter,https://www.walmart.com/store/1912/corona-ca/details,479 N Mckinley St,Corona,CA,92879,US,951-270-0707,,,,,,,"monday - friday : 06:00-24:00, saturday : 06:00-24:00, sunday : 06:00-24:00",33.89087,-117.517267,,,,,
Yucca Valley Supercenter,https://www.walmart.com/store/1915/yucca-valley-ca/details,58501 29 Palms Hwy,Yucca Valley,CA,92284,US,760-365-7750,,,,,,,"monday - friday : 06:00-24:00, saturday : 06:00-24:00, sunday : 06:00-24:00",34.132285,-116.384378,,,,,
Santee Store,https://www.walmart.com/store/1917/santee-ca/details,170 Town Center Parkway,Santee,CA,92071,US,619-449-7900,,,,,,,"monday - friday : 06:00-24:00, saturday : 06:00-24:00, sunday : 06:00-24:00",32.8423055,-116.9903086,,,,,
Highland Supercenter,https://www.walmart.com/store/1914/highland-ca/details,4210 East Highland Avenue,Highland,CA,92346,US,909-425-8846,,,,,,,"monday - friday : 06:00-23:00, saturday : 06:00-23:00, sunday : 06:00-23:00",34.137744,-117.194853,,,,,
Rancho Cucamonga Store,https://www.walmart.com/store/1922/rancho-cucamonga-ca/details,12549 Foothill Blvd,Rancho Cucamonga,CA,91739,US,909-899-1441,,,,,,,"monday - friday : 06:00-24:00, saturday : 06:00-24:00, sunday : 06:00-24:00",34.10349,-117.531484,,,,,
Glendora Supercenter,https://www.walmart.com/store/1941/glendora-ca/details,1950 Auto Center Drive,Glendora,CA,91740,US,909-592-4866,,,,,,,"monday - friday : 06:00-24:00, saturday : 06:00-24:00, sunday : 06:00-24:00",34.116431,-117.82595,,,,,
Turlock Store,https://www.walmart.com/store/1963/turlock-ca/details,2111 Fulkerth Rd,Turlock,CA,95380,US,209-634-8543,,,,,,,"monday - friday : 06:00-24:00, saturday : 06:00-24:00, sunday : 06:00-24:00",37.509427,-120.873024,,,,,
Clearlake Store,https://www.walmart.com/store/1979/clearlake-ca/details,15960 Dam Rd,Clearlake,CA,95422,US,707-994-6881,,,,,,,"monday - friday : 06:00-23:00, saturday : 06:00-23:00, sunday : 06:00-23:00",38.931599,-122.616359,,,,,
Ceres Store,https://www.walmart.com/store/1983/ceres-ca/details,1670 Mitchell Rd,Ceres,CA,95307,US,209-541-0253,,,,,,,"monday - friday : 06:00-24:00, saturday : 06:00-24:00, sunday : 06:00-24:00",37.606766,-120.93739,,,,,
Livermore Store,https://www.walmart.com/store/1972/livermore-ca/details,2700 Las Positas Rd,Livermore,CA,94551,US,925-455-0215,,,,,,,"monday - friday : 06:00-24:00, saturday : 06:00-24:00, sunday : 06:00-24:00",37.699249,-121.767991,,,,,
Roseville Supercenter,https://www.walmart.com/store/1988/roseville-ca/details,900 Pleasant Grove Blvd,Roseville,CA,95678,US,916-786-6768,,,,,,,"monday - friday : 00:00-24:00, saturday : 00:00-24:00, sunday : 00:00-24:00",38.78799,-121.2898911,,,,,
Lompoc Supercenter,https://www.walmart.com/store/1989/lompoc-ca/details,701 W Central Ave,Lompoc,CA,93436,US,805-735-9088,,,,,,,"monday - friday : 05:00-01:00, saturday : 05:00-01:00, sunday : 05:00-01:00",34.662934,-120.465113,,,,,
Upland Store,https://www.walmart.com/store/1992/upland-ca/details,1540 W Foothill Blvd,Upland,CA,91786,US,909-920-4021,,,,,,,"monday - friday : 06:00-24:00, saturday : 06:00-24:00, sunday : 06:00-24:00",34.105919,-117.678367,,,,,
Gilroy Supercenter,https://www.walmart.com/store/2002/gilroy-ca/details,7150 Camino Arroyo,Gilroy,CA,95020,US,408-848-8161,,,,,,,"monday - friday : 06:00-24:00, saturday : 06:00-24:00, sunday : 06:00-24:00",37.008583,-121.551183,,,,,
Fresno Supercenter,https://www.walmart.com/store/2001/fresno-ca/details,5125 East Kings Canyon Rd,Fresno,CA,93727,US,559-252-9457,,,,,,,"monday - friday : 06:00-22:00, saturday : 06:00-22:00, sunday : 06:00-22:00",36.738206,-119.721718,,,,,
Tracy Supercenter,https://www.walmart.com/store/2025/tracy-ca/details,3010 W Grant Line Rd,Tracy,CA,95304,US,209-836-5786,,,,,,,"monday - friday : 06:00-24:00, saturday : 06:00-24:00, sunday : 06:00-24:00",37.751554,-121.471986,,,,,
Riverside Supercenter,https://www.walmart.com/store/2028/riverside-ca/details,5200 Van Buren Blvd,Riverside,CA,92503,US,951-689-4595,,,,,,,"monday - friday : 06:00-24:00, saturday : 06:00-24:00, sunday : 06:00-24:00",33.93707,-117.455339,,,,,
Union City Store,https://www.walmart.com/store/2031/union-city-ca/details,30600 Dyer St,Union City,CA,94587,US,510-475-5915,,,,,,,"monday - friday : 06:00-24:00, saturday : 06:00-24:00, sunday : 06:00-24:00",37.604711,-122.067306,,,,,
Sonora Supercenter,https://www.walmart.com/store/2030/sonora-ca/details,1101 Sanguinetti Road,Sonora,CA,95370,US,209-533-2617,,,,,,,"monday - friday : 00:00-24:00, saturday : 00:00-24:00, sunday : 00:00-24:00",37.971663,-120.365778,,,,,
Oxnard Supercenter,https://www.walmart.com/store/2032/oxnard-ca/details,2001 N Rose Ave,Oxnard,CA,93036,US,805-981-4884,,,,,,,"monday - friday : 06:00-23:00, saturday : 06:00-23:00, sunday : 06:00-23:00",34.220106,-119.161569,,,,,
Merced Store,https://www.walmart.com/store/2039/merced-ca/details,3055 Loughborough Dr,Merced,CA,95348,US,209-384-1275,,,,,,,"monday - friday : 07:00-23:00, saturday : 07:00-23:00, sunday : 07:00-23:00",37.317972,-120.501967,,,,,
Chico Store,https://www.walmart.com/store/2044/chico-ca/details,2044 Forest Ave,Chico,CA,95928,US,530-899-8760,,,,,,,"monday - friday : 06:00-24:00, saturday : 06:00-24:00, sunday : 06:00-24:00",39.723234,-121.804955,,,,,
Fairfield Supercenter,https://www.walmart.com/store/2048/fairfield-ca/details,2701 N Texas St,Fairfield,CA,94533,US,707-428-4792,,,,,,,"monday - friday : 07:00-23:00, saturday : 07:00-23:00, sunday : 07:00-23:00",38.2790814,-122.0352432,,,,,
Ukiah Store,https://www.walmart.com/store/2052/ukiah-ca/details,1155 Airport Park Blvd,Ukiah,CA,95482,US,707-468-0258,,,,,,,"monday - friday : 06:00-24:00, saturday : 06:00-24:00, sunday : 06:00-24:00",39.133706,-123.196989,,,,,
Willows Supercenter,https://www.walmart.com/store/2053/willows-ca/details,470 N Airport Rd,Willows,CA,95988,US,530-934-2054,,,,,,,"monday - friday : 00:00-24:00, saturday : 00:00-24:00, sunday : 00:00-24:00",39.525898,-122.21772,,,,,
Jackson Store,https://www.walmart.com/store/2054/jackson-ca/details,10355 Wicklow Way,Jackson,CA,95642,US,209-223-5384,,,,,,,"monday - friday : 07:00-23:00, saturday : 07:00-23:00, sunday : 07:00-23:00",38.35793,-120.806192,,,,,
Lake Elsinore Store,https://www.walmart.com/store/2077/lake-elsinore-ca/details,31700 Grape St,Lake Elsinore,CA,92532,US,951-245-5990,,,,,,,"monday - friday : 06:00-23:00, saturday : 06:00-23:00, sunday : 06:00-23:00",33.662186,-117.294445,,,,,
Cerritos Supercenter,https://www.walmart.com/store/2082/cerritos-ca/details,12701 Towne Center Dr,Cerritos,CA,90703,US,562-924-1468,,,,,,,"monday - friday : 06:00-24:00, saturday : 06:00-24:00, sunday : 06:00-24:00",33.872491,-118.061727,,,,,
Vista Supercenter,https://www.walmart.com/store/2094/vista-ca/details,1800 University Dr,Vista,CA,92083,US,760-945-7995,,,,,,,"monday - friday : 06:00-24:00, saturday : 06:00-24:00, sunday : 06:00-24:00",33.172662,-117.216625,,,,,
Paso Robles Store,https://www.walmart.com/store/2099/paso-robles-ca/details,180 Niblick Rd,Paso Robles,CA,93446,US,805-238-1212,,,,,,,"monday - friday : 07:00-22:00, saturday : 07:00-22:00, sunday : 07:00-22:00",35.612445,-120.681692,,,,,
Paramount Supercenter,https://www.walmart.com/store/2110/paramount-ca/details,14501 Lakewood Blvd,Paramount,CA,90723,US,562-531-8240,,,,,,,"monday - friday : 06:00-24:00, saturday : 06:00-24:00, sunday : 06:00-24:00",33.902464,-118.14535,,,,,
Milpitas Supercenter,https://www.walmart.com/store/2119/milpitas-ca/details,301 Ranch Dr,Milpitas,CA,95035,US,408-934-0304,,,,,,,"monday - friday : 06:00-24:00, saturday : 06:00-24:00, sunday : 06:00-24:00",37.431416,-121.921182,,,,,
Los Banos Supercenter,https://www.walmart.com/store/2117/los-banos-ca/details,1575 West Pacheco Blvd,Los Banos,CA,93635,US,209-826-9655,,,,,,,"monday - friday : 00:00-24:00, saturday : 00:00-24:00, sunday : 00:00-24:00",37.05397,-120.878932,,,,,
San Diego Store,https://www.walmart.com/store/2150/san-diego-ca/details,710 Dennery Road,San Diego,CA,92154,US,619-428-4000,,,,,,,"monday - friday : 07:00-24:00, saturday : 07:00-24:00, sunday : 07:00-24:00",32.581551,-117.035491,,,,,
Pleasanton Store,https://www.walmart.com/store/2161/pleasanton-ca/details,4501 Rosewood Dr,Pleasanton,CA,94588,US,925-734-8744,,,,,,,"monday - friday : 06:00-24:00, saturday : 06:00-24:00, sunday : 06:00-24:00",37.698323,-121.887338,,,,,
San Diego Store,https://www.walmart.com/store/2177/san-diego-ca/details,3382 Murphy Canyon Road,San Diego,CA,92123,US,858-571-6094,,,,,,,"monday - friday : 00:00-24:00, saturday : 00:00-24:00, sunday : 00:00-24:00",32.805348,-117.116408,,,,,
Indio Supercenter,https://www.walmart.com/store/2181/indio-ca/details,82-491 Avenue 42,Indio,CA,92203,US,760-262-8004,,,,,,,"monday - friday : 06:00-24:00, saturday : 06:00-24:00, sunday : 06:00-24:00",33.7402813,-116.2292584,,,,,
Woodland Store,https://www.walmart.com/store/2190/woodland-ca/details,1720 E Main St,Woodland,CA,95776,US,530-668-1060,,,,,,,"monday - friday : 06:00-24:00, saturday : 06:00-24:00, sunday : 06:00-24:00",38.675429,-121.741011,,,,,
Laguna Niguel Store,https://www.walmart.com/store/2206/laguna-niguel-ca/details,27470 Alicia Pkwy,Laguna Niguel,CA,92677,US,949-360-0758,,,,,,,"monday - friday : 06:00-23:00, saturday : 06:00-23:00, sunday : 06:00-23:00",33.563536,-117.713072,,,,,
Torrance Neighborhood Market,https://www.walmart.com/store/2226/torrance-ca/details,19340 Hawthorne Blvd,Torrance,CA,90503,US,310-750-1983,,,,,,,"monday - friday : 06:00-22:00, saturday : 06:00-22:00, sunday : 06:00-22:00",33.855292,-118.352273,,,,,
Anaheim Supercenter,https://www.walmart.com/store/2242/anaheim-ca/details,440 N Euclid St,Anaheim,CA,92801,US,714-491-0744,,,,,,,"monday - friday : 06:00-24:00, saturday : 06:00-24:00, sunday : 06:00-24:00",33.8363,-117.938,,,,,
Oceanside Supercenter,https://www.walmart.com/store/2245/oceanside-ca/details,705 College Blvd,Oceanside,CA,92057,US,760-631-0434,,,,,,,"monday - friday : 06:00-24:00, saturday : 06:00-24:00, sunday : 06:00-24:00",33.241115,-117.29099,,,,,
Foothill Ranch Supercenter,https://www.walmart.com/store/2218/foothill-ranch-ca/details,26502 Towne Centre Dr,Foothill Ranch,CA,92610,US,949-588-7923,,,,,,,"monday - friday : 06:00-23:00, saturday : 06:00-23:00, sunday : 06:00-23:00",33.679795,-117.671317,,,,,
El Cajon Supercenter,https://www.walmart.com/store/2253/el-cajon-ca/details,13487 Camino Canada,El Cajon,CA,92021,US,619-561-0828,,,,,,,"monday - friday : 06:00-24:00, saturday : 06:00-24:00, sunday : 06:00-24:00",32.822626,-116.901748,,,,,
City Of Industry Supercenter,https://www.walmart.com/store/2251/city-of-industry-ca/details,17150 Gale Ave,City Of Industry,CA,91745,US,626-854-1166,,,,,,,"monday - friday : 06:00-24:00, saturday : 06:00-24:00, sunday : 06:00-24:00",33.998396,-117.932358,,,,,
Clovis Supercenter,https://www.walmart.com/store/2277/clovis-ca/details,323 W Shaw Ave,Clovis,CA,93612,US,559-297-4176,,,,,,,"monday - friday : 07:00-23:00, saturday : 07:00-23:00, sunday : 07:00-23:00",36.811301,-119.716929,,,,,
Mountain View Store,https://www.walmart.com/store/2280/mountain-view-ca/details,600 Showers Dr,Mountain View,CA,94040,US,650-917-0796,,,,,,,"monday - friday : 07:00-22:00, saturday : 07:00-22:00, sunday : 07:00-22:00",37.400846,-122.109748,,,,,
Pomona Store,https://www.walmart.com/store/2288/pomona-ca/details,80 Rio Rancho Rd,Pomona,CA,91766,US,909-620-4602,,,,,,,"monday - friday : 06:00-24:00, saturday : 06:00-24:00, sunday : 06:00-24:00",34.029257,-117.757758,,,,,
Chula Vista Store,https://www.walmart.com/store/2291/chula-vista-ca/details,75 North Broadway,Chula Vista,CA,91910,US,619-691-7945,,,,,,,"monday - friday : 06:00-24:00, saturday : 06:00-24:00, sunday : 06:00-24:00",32.651877,-117.094289,,,,,
Covina Supercenter,https://www.walmart.com/store/2292/covina-ca/details,1275 N Azusa Ave,Covina,CA,91722,US,626-339-4161,,,,,,,"monday - friday : 06:00-24:00, saturday : 06:00-24:00, sunday : 06:00-24:00",34.102622,-117.909601,,,,,
Stevenson Ranch Store,https://www.walmart.com/store/2297/stevenson-ranch-ca/details,25450 The Old Rd,Stevenson Ranch,CA,91381,US,661-253-1911,,,,,,,"monday - friday : 07:00-24:00, saturday : 07:00-24:00, sunday : 07:00-24:00",34.383447,-118.569255,,,,,
Apple Valley Store,https://www.walmart.com/store/2333/apple-valley-ca/details,20251 Hwy 18,Apple Valley,CA,92307,US,760-946-2030,,,,,,,"monday - friday : 06:00-22:00, saturday : 06:00-22:00, sunday : 06:00-22:00",34.525592,-117.223224,,,,,
Duarte Store,https://www.walmart.com/store/2401/duarte-ca/details,1600 Mountain Ave,Duarte,CA,91010,US,626-359-7708,,,,,,,"monday - friday : 06:00-24:00, saturday : 06:00-24:00, sunday : 06:00-24:00",34.134035,-117.9838889,,,,,
Placerville Store,https://www.walmart.com/store/2418/placerville-ca/details,4300 Missouri Flat Rd,Placerville,CA,95667,US,530-621-2917,,,,,,,"monday - friday : 06:00-24:00, saturday : 06:00-24:00, sunday : 06:00-24:00",38.704034,-120.828964,,,,,
Rancho Cordova Supercenter,https://www.walmart.com/store/2457/rancho-cordova-ca/details,10655 Folsom Blvd,Rancho Cordova,CA,95670,US,916-361-0296,,,,,,,"monday - friday : 06:00-24:00, saturday : 06:00-24:00, sunday : 06:00-24:00",38.5961282,-121.2918143,,,,,
Salinas Supercenter,https://www.walmart.com/store/2458/salinas-ca/details,1800 N Main,Salinas,CA,93906,US,831-751-0231,,,,,,,"monday - friday : 06:00-24:00, saturday : 06:00-24:00, sunday : 06:00-24:00",36.717758,-121.650404,,,,,
Rohnert Park Neighborhood Market,https://www.walmart.com/store/2468/rohnert-park-ca/details,901 Golf Course Drive,Rohnert Park,CA,94928,US,707-540-9303,,,,,,,"monday - friday : 06:00-23:00, saturday : 06:00-23:00, sunday : 06:00-23:00",38.36144,-122.692596,,,,,
Sacramento Supercenter,https://www.walmart.com/store/2464/sacramento-ca/details,8270 Delta Shores Circle,Sacramento,CA,95832,US,916-665-1011,,,,,,,"monday - friday : 06:00-24:00, saturday : 06:00-24:00, sunday : 06:00-24:00",38.459951,-121.490326,,,,,
San Diego Supercenter,https://www.walmart.com/store/2479/san-diego-ca/details,3412 College Ave,San Diego,CA,92115,US,619-858-0071,,,,,,,"monday - friday : 06:00-23:00, saturday : 06:00-23:00, sunday : 06:00-23:00",32.741663,-117.053585,,,,,
San Jose Neighborhood Market,https://www.walmart.com/store/2486/san-jose-ca/details,4080 Stevens Creek Blvd,San Jose,CA,95129,US,408-556-4505,,,,,,,"monday - friday : 06:00-23:00, saturday : 06:00-23:00, sunday : 06:00-23:00",37.321668,-121.973182,,,,,
Corona Neighborhood Market,https://www.walmart.com/store/2487/corona-ca/details,1560 West Sixth Street,Corona,CA,92882,US,951-393-6405,,,,,,,"monday - friday : 06:00-24:00, saturday : 06:00-24:00, sunday : 06:00-24:00",33.87734,-117.596143,,,,,
Oceanside Supercenter,https://www.walmart.com/store/2494/oceanside-ca/details,2100 Vista Way,Oceanside,CA,92054,US,760-966-0026,,,,,,,"monday - friday : 06:00-23:00, saturday : 06:00-23:00, sunday : 06:00-23:00",33.181302,-117.347277,,,,,
Westminster Store,https://www.walmart.com/store/2495/westminster-ca/details,13331 Beach Blvd,Westminster,CA,92683,US,714-799-0020,,,,,,,"monday - friday : 06:00-01:00, saturday : 06:00-01:00, sunday : 06:00-01:00",33.767668,-117.993504,,,,,
Santa Maria Store,https://www.walmart.com/store/2507/santa-maria-ca/details,2220 S Bradley Rd,Santa Maria,CA,93455,US,805-349-7885,,,,,,,"monday - friday : 07:00-23:00, saturday : 07:00-23:00, sunday : 07:00-23:00",34.919981,-120.419107,,,,,
Santa Ana Supercenter,https://www.walmart.com/store/2517/santa-ana-ca/details,3600 W Mcfadden Ave,Santa Ana,CA,92704,US,714-775-1804,,,,,,,"monday - friday : 06:00-24:00, saturday : 06:00-24:00, sunday : 06:00-24:00",33.737285,-117.915302,,,,,
Brea Store,https://www.walmart.com/store/2523/brea-ca/details,2595 E Imperial Hwy,Brea,CA,92821,US,714-529-0596,,,,,,,"monday - friday : 07:00-23:00, saturday : 07:00-23:00, sunday : 07:00-23:00",33.9135102,-117.8653504,,,,,
Porter Ranch Supercenter,https://www.walmart.com/store/2526/porter-ranch-ca/details,19821 Rinaldi St,Porter Ranch,CA,91326,US,818-832-0643,,,,,,,"monday - friday : 07:00-24:00, saturday : 07:00-24:00, sunday : 07:00-24:00",34.2776293,-118.5669947,,,,,
San Clemente Store,https://www.walmart.com/store/2527/san-clemente-ca/details,951 Avenida Pico,San Clemente,CA,92673,US,949-498-6669,,,,,,,"monday - friday : 06:00-23:00, saturday : 06:00-23:00, sunday : 06:00-23:00",33.455717,-117.606181,,,,,
Tulare Store,https://www.walmart.com/store/2536/tulare-ca/details,1110 E Prosperity Ave,Tulare,CA,93274,US,559-684-1300,,,,,,,"monday - friday : 07:00-23:00, saturday : 07:00-23:00, sunday : 07:00-23:00",36.228605,-119.328986,,,,,
Redding Supercenter,https://www.walmart.com/store/2537/redding-ca/details,1515 Dana Dr,Redding,CA,96003,US,530-221-2800,,,,,,,"monday - friday : 06:00-24:00, saturday : 06:00-24:00, sunday : 06:00-24:00",40.583976,-122.34324,,,,,
Orange Store,https://www.walmart.com/store/2546/orange-ca/details,2300 N Tustin St,Orange,CA,92865,US,714-998-4473,,,,,,,"monday - friday : 06:00-23:00, saturday : 06:00-23:00, sunday : 06:00-23:00",33.8280351,-117.8385642,,,,,
Windsor Store,https://www.walmart.com/store/2553/windsor-ca/details,6650 Hembree Ln,Windsor,CA,95492,US,707-836-7200,,,,,,,"monday - friday : 06:00-24:00, saturday : 06:00-24:00, sunday : 06:00-24:00",38.528764,-122.79005,,,,,
Arroyo Grande Store,https://www.walmart.com/store/2556/arroyo-grande-ca/details,1168 W Branch St,Arroyo Grande,CA,93420,US,805-474-0800,,,,,,,"monday - friday : 07:00-22:00, saturday : 07:00-22:00, sunday : 07:00-22:00",35.1289517,-120.5977084,,,,,
Panorama City Store,https://www.walmart.com/store/2568/panorama-city-ca/details,8333 Van Nuys Blvd,Panorama City,CA,91402,US,818-830-0350,,,,,,,"monday - friday : 07:00-23:00, saturday : 07:00-23:00, sunday : 07:00-23:00",34.222633,-118.449536,,,,,
Bakersfield Supercenter,https://www.walmart.com/store/2557/bakersfield-ca/details,8400 Rosedale Hwy,Bakersfield,CA,93312,US,661-588-2097,,,,,,,"monday - friday : 06:00-24:00, saturday : 06:00-24:00, sunday : 06:00-24:00",35.386354,-119.095662,,,,,
Sacramento Store,https://www.walmart.com/store/2598/sacramento-ca/details,3661 Truxel Rd,Sacramento,CA,95834,US,916-928-9668,,,,,,,"monday - friday : 06:00-23:00, saturday : 06:00-23:00, sunday : 06:00-23:00",38.635584,-121.506013,,,,,
Lakewood Supercenter,https://www.walmart.com/store/2609/lakewood-ca/details,2770 Carson St,Lakewood,CA,90712,US,562-429-6239,,,,,,,"monday - friday : 06:00-24:00, saturday : 06:00-24:00, sunday : 06:00-24:00",33.830338,-118.15857,,,,,
Simi Valley Store,https://www.walmart.com/store/2621/simi-valley-ca/details,255 Cochran St,Simi Valley,CA,93065,US,805-581-1666,,,,,,,"monday - friday : 07:00-22:00, saturday : 07:00-22:00, sunday : 07:00-22:00",34.282111,-118.79216,,,,,
Huntington Beach Store,https://www.walmart.com/store/2636/huntington-beach-ca/details,8230 Talbert Ave,Huntington Beach,CA,92646,US,714-841-5390,,,,,,,"monday - friday : 07:00-22:00, saturday : 07:00-22:00, sunday : 07:00-22:00",33.700181,-117.985512,,,,,
San Leandro Store,https://www.walmart.com/store/2648/san-leandro-ca/details,1919 Davis St,San Leandro,CA,94577,US,510-569-0200,,,,,,,"monday - friday : 06:00-24:00, saturday : 06:00-24:00, sunday : 06:00-24:00",37.714599,-122.177691,,,,,
Fresno Neighborhood Market,https://www.walmart.com/store/2689/fresno-ca/details,3131 N Cedar Ave,Fresno,CA,93703,US,559-538-1375,,,,,,,"monday - friday : 06:00-23:00, saturday : 06:00-23:00, sunday : 06:00-23:00",36.778967,-119.756212,,,,,
Antioch Supercenter,https://www.walmart.com/store/2697/antioch-ca/details,4893 Lone Tree Way,Antioch,CA,94531,US,925-755-0900,,,,,,,"monday - friday : 06:00-24:00, saturday : 06:00-24:00, sunday : 06:00-24:00",37.96348,-121.761615,,,,,
Temecula Supercenter,https://www.walmart.com/store/2708/temecula-ca/details,32225 Temecula Pkwy,Temecula,CA,92592,US,951-506-7613,,,,,,,"monday - friday : 06:00-24:00, saturday : 06:00-24:00, sunday : 06:00-24:00",33.480162,-117.094503,,,,,
Sacramento Supercenter,https://www.walmart.com/store/2735/sacramento-ca/details,6051 Florin Rd,Sacramento,CA,95823,US,916-427-9719,,,,,,,"monday - friday : 06:00-24:00, saturday : 06:00-24:00, sunday : 06:00-24:00",38.499441,-121.433569,,,,,
Coachella Neighborhood Market,https://www.walmart.com/store/2826/coachella-ca/details,83053 Avenue 48,Coachella,CA,92236,US,760-262-8050,,,,,,,"monday - friday : 06:00-24:00, saturday : 06:00-24:00, sunday : 06:00-24:00",33.698811,-116.215202,,,,,
Corona Supercenter,https://www.walmart.com/store/2842/corona-ca/details,1290 E Ontario Ave,Corona,CA,92881,US,951-278-0924,,,,,,,"monday - friday : 06:00-24:00, saturday : 06:00-24:00, sunday : 06:00-24:00",33.846009,-117.541261,,,,,
Pico Rivera Supercenter,https://www.walmart.com/store/2886/pico-rivera-ca/details,8500 Washington Blvd,Pico Rivera,CA,90660,US,562-801-2413,,,,,,,"monday - friday : 06:00-24:00, saturday : 06:00-24:00, sunday : 06:00-24:00",33.985005,-118.105078,,,,,
Napa Supercenter,https://www.walmart.com/store/2925/napa-ca/details,681 Lincoln Ave,Napa,CA,94558,US,707-224-8797,,,,,,,"monday - friday : 06:00-24:00, saturday : 06:00-24:00, sunday : 06:00-24:00",38.309011,-122.283328,,,,,
Santa Fe Springs Supercenter,https://www.walmart.com/store/2948/santa-fe-springs-ca/details,13310 Telegraph Rd,Santa Fe Springs,CA,90670,US,562-946-6343,,,,,,,"monday - friday : 06:00-24:00, saturday : 06:00-24:00, sunday : 06:00-24:00",33.940766,-118.049799,,,,,
Lancaster Supercenter,https://www.walmart.com/store/2951/lancaster-ca/details,1731 E Avenue J,Lancaster,CA,93535,US,661-945-7848,,,,,,,"monday - friday : 06:00-24:00, saturday : 06:00-24:00, sunday : 06:00-24:00",34.692518,-118.097675,,,,,
Palmdale Supercenter,https://www.walmart.com/store/2950/palmdale-ca/details,37140 47th St E,Palmdale,CA,93552,US,661-533-0248,,,,,,,"monday - friday : 06:00-24:00, saturday : 06:00-24:00, sunday : 06:00-24:00",34.556809,-118.042273,,,,,
Murrieta Store,https://www.walmart.com/store/2952/murrieta-ca/details,41200 Murrieta Hot Springs Rd,Murrieta,CA,92562,US,951-696-7135,,,,,,,"monday - friday : 06:00-24:00, saturday : 06:00-24:00, sunday : 06:00-24:00",33.552575,-117.192629,,,,,
Fresno Supercenter,https://www.walmart.com/store/2985/fresno-ca/details,7065 N Ingram Ave,Fresno,CA,93650,US,559-431-0107,,,,,,,"monday - friday : 06:00-23:00, saturday : 06:00-23:00, sunday : 06:00-23:00",36.8391419,-119.8033202,,,,,
Fremont Store,https://www.walmart.com/store/2989/fremont-ca/details,44009 Osgood Rd,Fremont,CA,94539,US,510-651-3301,,,,,,,"monday - friday : 07:00-22:00, saturday : 07:00-22:00, sunday : 07:00-22:00",37.511302,-121.943195,,,,,
Loma Linda Neighborhood Market,https://www.walmart.com/store/2998/loma-linda-ca/details,25755 Barton Rd,Loma Linda,CA,92354,US,909-283-7239,,,,,,,"monday - friday : 06:00-24:00, saturday : 06:00-24:00, sunday : 06:00-24:00",34.047122,-117.242268,,,,,
Stockton Neighborhood Market,https://www.walmart.com/store/3022/stockton-ca/details,1189 E March Ln,Stockton,CA,95210,US,209-235-2047,,,,,,,"monday - friday : 06:00-23:00, saturday : 06:00-23:00, sunday : 06:00-23:00",38.004164,-121.292465,,,,,
San Jose Neighborhood Market,https://www.walmart.com/store/3025/san-jose-ca/details,1600 Saratoga Ave Unit 501,San Jose,CA,95129,US,408-796-3823,,,,,,,"monday - friday : 06:00-23:00, saturday : 06:00-23:00, sunday : 06:00-23:00",37.291593,-121.9887,,,,,
San Jose Neighborhood Market,https://www.walmart.com/store/3023/san-jose-ca/details,4055 Evergreen Village Sq Ste 140,San Jose,CA,95135,US,408-826-0338,,,,,,,"monday - friday : 06:00-22:00, saturday : 06:00-22:00, sunday : 06:00-22:00",37.313558,-121.773066,,,,,
Palm Desert Neighborhood Market,https://www.walmart.com/store/3026/palm-desert-ca/details,72314 Highway 111,Palm Desert,CA,92260,US,760-469-3428,,,,,,,"monday - friday : 06:00-24:00, saturday : 06:00-24:00, sunday : 06:00-24:00",33.727992,-116.400709,,,,,
Modesto Neighborhood Market,https://www.walmart.com/store/3046/modesto-ca/details,1421 Coffee Rd,Modesto,CA,95355,US,209-222-5632,,,,,,,"monday - friday : 06:00-23:00, saturday : 06:00-23:00, sunday : 06:00-23:00",37.664584,-120.976596,,,,,
Turlock Neighborhood Market,https://www.walmart.com/store/3047/turlock-ca/details,2480 Geer Road,Turlock,CA,95380,US,209-226-7000,,,,,,,"monday - friday : 05:00-24:00, saturday : 05:00-24:00, sunday : 05:00-24:00",37.515657,-120.847072,,,,,
Sacramento Supercenter,https://www.walmart.com/store/3081/sacramento-ca/details,8915 Gerber Road,Sacramento,CA,95829,US,916-897-5020,,,,,,,"monday - friday : 06:00-24:00, saturday : 06:00-24:00, sunday : 06:00-24:00",38.482677,-121.369026,,,,,
Oxnard Store,https://www.walmart.com/store/3087/oxnard-ca/details,2701 Saviers Rd,Oxnard,CA,93033,US,805-200-5224,,,,,,,"monday - friday : 06:00-23:00, saturday : 06:00-23:00, sunday : 06:00-23:00",34.174418,-119.179256,,,,,
La Palma Neighborhood Market,https://www.walmart.com/store/3099/la-palma-ca/details,5420 Lapalma Ave,La Palma,CA,90623,US,714-822-3152,,,,,,,"monday - friday : 06:00-23:00, saturday : 06:00-23:00, sunday : 06:00-23:00",33.845619,-118.038726,,,,,
Anaheim Neighborhood Market,https://www.walmart.com/store/3101/anaheim-ca/details,121 N Beach Blvd,Anaheim,CA,92801,US,714-822-3179,,,,,,,"monday - friday : 06:00-23:00, saturday : 06:00-23:00, sunday : 06:00-23:00",33.833236,-117.995057,,,,,
Rocklin Neighborhood Market,https://www.walmart.com/store/3090/rocklin-ca/details,5609 Pacific St,Rocklin,CA,95677,US,916-824-0104,,,,,,,"monday - friday : 06:00-24:00, saturday : 06:00-24:00, sunday : 06:00-24:00",38.784013,-121.239575,,,,,
Escondido Neighborhood Market,https://www.walmart.com/store/3084/escondido-ca/details,1266 East Valley Parkway,Escondido,CA,92027,US,760-871-6760,,,,,,,"monday - friday : 06:00-23:00, saturday : 06:00-23:00, sunday : 06:00-23:00",33.1300697,-117.0629723,,,,,
Santa Clara Neighborhood Market,https://www.walmart.com/store/3123/santa-clara-ca/details,3255 Mission College Blvd,Santa Clara,CA,95054,US,408-961-3599,,,,,,,"monday - friday : 06:00-23:00, saturday : 06:00-23:00, sunday : 06:00-23:00",37.3900085,-121.9855022,,,,,
Rialto Neighborhood Market,https://www.walmart.com/store/3131/rialto-ca/details,300 West Baseline Rd,Rialto,CA,92376,US,909-546-3019,,,,,,,"monday - friday : 06:00-23:00, saturday : 06:00-23:00, sunday : 06:00-23:00",34.122765,-117.374193,,,,,
La Puente Neighborhood Market,https://www.walmart.com/store/3133/la-puente-ca/details,1425 N Hacienda Blvd,La Puente,CA,91744,US,626-251-1877,,,,,,,"monday - friday : 07:00-22:00, saturday : 07:00-22:00, sunday : 07:00-22:00",34.0471887,-117.9497913,,,,,
Bakersfield Neighborhood Market,https://www.walmart.com/store/3139/bakersfield-ca/details,1249 Allen Road,Bakersfield,CA,93312,US,661-535-6373,,,,,,,"monday - friday : 06:00-23:00, saturday : 06:00-23:00, sunday : 06:00-23:00",35.370037,-119.147611,,,,,
Bakersfield Neighborhood Market,https://www.walmart.com/store/3141/bakersfield-ca/details,5037 East Brundage Lane,Bakersfield,CA,93307,US,661-448-8147,,,,,,,"monday - friday : 07:00-23:00, saturday : 07:00-23:00, sunday : 07:00-23:00",35.353387,-118.947601,,,,,
Bakersfield Neighborhood Market,https://www.walmart.com/store/3138/bakersfield-ca/details,5625 Calloway Drive,Bakersfield,CA,93312,US,661-368-7065,,,,,,,"monday - friday : 06:00-24:00, saturday : 06:00-24:00, sunday : 06:00-24:00",35.411874,-119.112528,,,,,
Bakersfield Neighborhood Market,https://www.walmart.com/store/3140/bakersfield-ca/details,3111 North Chester,Bakersfield,CA,93308,US,661-368-7010,,,,,,,"monday - friday : 05:00-23:00, saturday : 05:00-23:00, sunday : 05:00-23:00",35.434523,-119.022288,,,,,
Pomona Neighborhood Market,https://www.walmart.com/store/3132/pomona-ca/details,778 E Arrow Hwy,Pomona,CA,91767,US,909-962-5011,,,,,,,"monday - friday : 06:00-24:00, saturday : 06:00-24:00, sunday : 06:00-24:00",34.0885722,-117.7374711,,,,,
Simi Valley Neighborhood Market,https://www.walmart.com/store/3147/simi-valley-ca/details,2204 Tapo Street,Simi Valley,CA,93063,US,805-426-6802,,,,,,,"monday - friday : 07:00-22:00, saturday : 07:00-22:00, sunday : 07:00-22:00",34.2757157,-118.7077044,,,,,
South Gate Supercenter,https://www.walmart.com/store/3180/south-gate-ca/details,4651 Firestone Blvd,South Gate,CA,90280,US,323-282-4800,,,,,,,"monday - friday : 06:00-24:00, saturday : 06:00-24:00, sunday : 06:00-24:00",33.954813,-118.187613,,,,,
Thousand Oaks Neighborhood Market,https://www.walmart.com/store/3179/thousand-oaks-ca/details,512 North Ventu Park Road,Thousand Oaks,CA,91320,US,805-262-3406,,,,,,,"monday - friday : 07:00-23:00, saturday : 07:00-23:00, sunday : 07:00-23:00",34.1862017,-118.909084,,,,,
La Habra Supercenter,https://www.walmart.com/store/3248/la-habra-ca/details,1340 S Beach Blvd,La Habra,CA,90631,US,562-694-2707,,,,,,,"monday - friday : 06:00-24:00, saturday : 06:00-24:00, sunday : 06:00-24:00",33.914719,-117.966157,,,,,
San Bernardino Store,https://www.walmart.com/store/3276/san-bernardino-ca/details,4001 Hallmark Pkwy,San Bernardino,CA,92407,US,909-880-4038,,,,,,,"monday - friday : 06:00-24:00, saturday : 06:00-24:00, sunday : 06:00-24:00",34.165511,-117.336068,,,,,
Stockton Supercenter,https://www.walmart.com/store/3352/stockton-ca/details,10355 Trinity Pkwy,Stockton,CA,95219,US,209-235-0558,,,,,,,"monday - friday : 06:00-24:00, saturday : 06:00-24:00, sunday : 06:00-24:00",38.049823,-121.376304,,,,,
Richmond Store,https://www.walmart.com/store/3455/richmond-ca/details,1400 Hilltop Mall Rd,Richmond,CA,94806,US,510-669-1342,,,,,,,"monday - friday : 06:00-23:00, saturday : 06:00-23:00, sunday : 06:00-23:00",37.979871,-122.328358,,,,,
Chino Supercenter,https://www.walmart.com/store/3464/chino-ca/details,3943 Grand Ave,Chino,CA,91710,US,909-364-1968,,,,,,,"monday - friday : 06:00-24:00, saturday : 06:00-24:00, sunday : 06:00-24:00",33.995325,-117.719321,,,,,
Long Beach Supercenter,https://www.walmart.com/store/3477/long-beach-ca/details,7250 Carson Blvd,Long Beach,CA,90808,US,562-425-5113,,,,,,,"monday - friday : 06:00-24:00, saturday : 06:00-24:00, sunday : 06:00-24:00",33.829326,-118.090624,,,,,
Martinez Store,https://www.walmart.com/store/3493/martinez-ca/details,1021 Arnold Dr,Martinez,CA,94553,US,925-313-5716,,,,,,,"monday - friday : 07:00-23:00, saturday : 07:00-23:00, sunday : 07:00-23:00",37.996909,-122.109451,,,,,
San Marcos Store,https://www.walmart.com/store/3494/san-marcos-ca/details,732 Center Dr,San Marcos,CA,92069,US,760-233-8009,,,,,,,"monday - friday : 07:00-23:00, saturday : 07:00-23:00, sunday : 07:00-23:00",33.135681,-117.123423,,,,,
Santa Clarita Supercenter,https://www.walmart.com/store/3523/santa-clarita-ca/details,26471 Carl Boyer Dr,Santa Clarita,CA,91350,US,661-259-0863,,,,,,,"monday - friday : 06:00-24:00, saturday : 06:00-24:00, sunday : 06:00-24:00",34.413887,-118.506124,,,,,
El Cajon Store,https://www.walmart.com/store/3524/el-cajon-ca/details,605 Fletcher Pkwy,El Cajon,CA,92020,US,619-440-2009,,,,,,,"monday - friday : 06:00-24:00, saturday : 06:00-24:00, sunday : 06:00-24:00",32.804338,-116.968341,,,,,
Baldwin Park Supercenter,https://www.walmart.com/store/3522/baldwin-park-ca/details,3250 Big Dalton Ave,Baldwin Park,CA,91706,US,626-814-2235,,,,,,,"monday - friday : 06:00-24:00, saturday : 06:00-24:00, sunday : 06:00-24:00",34.071943,-117.963494,,,,,
Chula Vista Supercenter,https://www.walmart.com/store/3516/chula-vista-ca/details,1360 Eastlake Pkwy,Chula Vista,CA,91915,US,619-421-3140,,,,,,,"monday - friday : 00:00-24:00, saturday : 00:00-24:00, sunday : 00:00-24:00",32.631012,-116.968043,,,,,
Rocklin Supercenter,https://www.walmart.com/store/3587/rocklin-ca/details,5454 Crossings Drive,Rocklin,CA,95677,US,916-783-8281,,,,,,,"monday - friday : 06:00-24:00, saturday : 06:00-24:00, sunday : 06:00-24:00",38.802655,-121.201915,,,,,
Ventura Store,https://www.walmart.com/store/3650/ventura-ca/details,1739 S Victoria Ave,Ventura,CA,93003,US,805-665-5560,,,,,,,"monday - friday : 07:00-23:00, saturday : 07:00-23:00, sunday : 07:00-23:00",34.258121,-119.2129493,,,,,
Suisun City Supercenter,https://www.walmart.com/store/3708/suisun-city-ca/details,350 Walters Road,Suisun City,CA,94585,US,707-639-4980,,,,,,,"monday - friday : 06:00-24:00, saturday : 06:00-24:00, sunday : 06:00-24:00",38.24262,-121.990103,,,,,
Citrus Heights Supercenter,https://www.walmart.com/store/3712/citrus-heights-ca/details,7010 Auburn Blvd,Citrus Heights,CA,95621,US,916-729-8077,,,,,,,"monday - friday : 05:30-22:30, saturday : 05:30-22:30, sunday : 05:30-22:30",38.689487,-121.295274,,,,,
West Sacramento Supercenter,https://www.walmart.com/store/3652/west-sacramento-ca/details,755 Riverpoint Ct,West Sacramento,CA,95605,US,916-373-2200,,,,,,,"monday - friday : 06:00-24:00, saturday : 06:00-24:00, sunday : 06:00-24:00",38.58732,-121.550055,,,,,
Ontario Supercenter,https://www.walmart.com/store/3796/ontario-ca/details,1333 North Mountain Avenue,Ontario,CA,91762,US,909-321-3165,,,,,,,"monday - friday : 06:00-24:00, saturday : 06:00-24:00, sunday : 06:00-24:00",34.082664,-117.672495,,,,,
Chula Vista Supercenter,https://www.walmart.com/store/3947/chula-vista-ca/details,875 E. H St.,Chula Vista,CA,91910,US,619-205-4259,,,,,,,"monday - friday : 06:00-24:00, saturday : 06:00-24:00, sunday : 06:00-24:00",32.637851,-117.024932,,,,,
Long Beach Supercenter,https://www.walmart.com/store/4101/long-beach-ca/details,3705 E South St,Long Beach,CA,90805,US,424-296-6525,,,,,,,"monday - friday : 06:00-24:00, saturday : 06:00-24:00, sunday : 06:00-24:00",33.86142,-118.147723,,,,,
Woodland Neighborhood Market,https://www.walmart.com/store/4127/woodland-ca/details,215 California St,Woodland,CA,95695,US,530-665-4638,,,,,,,"monday - friday : 06:00-24:00, saturday : 06:00-24:00, sunday : 06:00-24:00",38.680872,-121.787924,,,,,
Downey Supercenter,https://www.walmart.com/store/4132/downey-ca/details,9001 Apollo Way,Downey,CA,90242,US,562-803-3507,,,,,,,"monday - friday : 06:00-24:00, saturday : 06:00-24:00, sunday : 06:00-24:00",33.924644,-118.129015,,,,,
Stanton Neighborhood Market,https://www.walmart.com/store/4134/stanton-ca/details,12840 Beach Blvd,Stanton,CA,90680,US,714-230-0126,,,,,,,"monday - friday : 06:00-24:00, saturday : 06:00-24:00, sunday : 06:00-24:00",33.7749668,-117.9911038,,,,,
El Cajon Neighborhood Market,https://www.walmart.com/store/4169/el-cajon-ca/details,300 North Second Street,El Cajon,CA,92021,US,619-219-5246,,,,,,,"monday - friday : 06:00-24:00, saturday : 06:00-24:00, sunday : 06:00-24:00",32.797303,-116.936688,,,,,
Garden Grove Supercenter,https://www.walmart.com/store/4171/garden-grove-ca/details,11822 Gilbert St,Garden Grove,CA,92841,US,714-591-1300,,,,,,,"monday - friday : 06:00-23:00, saturday : 06:00-23:00, sunday : 06:00-23:00",33.790787,-117.964352,,,,,
San Jose Neighborhood Market,https://www.walmart.com/store/4174/san-jose-ca/details,1450 Monterey Rd,San Jose,CA,95112,US,408-454-4508,,,,,,,"monday - friday : 06:00-22:00, saturday : 06:00-22:00, sunday : 06:00-22:00",37.31621,-121.871095,,,,,
Roseville Supercenter,https://www.walmart.com/store/4202/roseville-ca/details,1400 Lead Hill Blvd,Roseville,CA,95661,US,916-724-0012,,,,,,,"monday - friday : 06:00-24:00, saturday : 06:00-24:00, sunday : 06:00-24:00",38.747165,-121.256983,,,,,
Sanger Supercenter,https://www.walmart.com/store/4238/sanger-ca/details,2761 Jensen Ave,Sanger,CA,93657,US,559-875-4268,,,,,,,"monday - friday : 05:00-23:00, saturday : 05:00-23:00, sunday : 05:00-23:00",36.70562,-119.577659,,,,,
Orangevale Supercenter,https://www.walmart.com/store/4309/orangevale-ca/details,8961 Greenback Ln,Orangevale,CA,95662,US,916-989-5800,,,,,,,"monday - friday : 06:00-24:00, saturday : 06:00-24:00, sunday : 06:00-24:00",38.67938,-121.222549,,,,,
Hesperia Supercenter,https://www.walmart.com/store/4340/hesperia-ca/details,13401 Main St,Hesperia,CA,92345,US,760-948-4851,,,,,,,"monday - friday : 05:00-24:00, saturday : 05:00-24:00, sunday : 05:00-24:00",34.424199,-117.370036,,,,,
North Highlands Supercenter,https://www.walmart.com/store/4393/north-highlands-ca/details,4675 Watt Avenue,North Highlands,CA,95660,US,916-621-1454,,,,,,,"monday - friday : 06:00-24:00, saturday : 06:00-24:00, sunday : 06:00-24:00",38.649823,-121.38631,,,,,
Victorville Supercenter,https://www.walmart.com/store/4392/victorville-ca/details,12234 Palmdale Road,Victorville,CA,92392,US,760-493-3047,,,,,,,"monday - friday : 05:00-24:00, saturday : 05:00-24:00, sunday : 05:00-24:00",34.509447,-117.396782,,,,,
Marina Supercenter,https://www.walmart.com/store/4488/marina-ca/details,150 Beach Rd,Marina,CA,93933,US,831-883-9138,,,,,,,"monday - friday : 07:00-23:00, saturday : 07:00-23:00, sunday : 07:00-23:00",36.693096,-121.801112,,,,,
Diamond Bar Neighborhood Market,https://www.walmart.com/store/4762/diamond-bar-ca/details,1180 South Diamond Bar Blvd.,Diamond Bar,CA,91765,US,909-378-4055,,,,,,,"monday - friday : 06:00-23:00, saturday : 06:00-23:00, sunday : 06:00-23:00",34.001124,-117.809269,,,,,
Citrus Heights Neighborhood Market,https://www.walmart.com/store/4759/citrus-heights-ca/details,6197 Sunrise Blvd,Citrus Heights,CA,95610,US,916-560-0031,,,,,,,"monday - friday : 05:00-24:00, saturday : 05:00-24:00, sunday : 05:00-24:00",38.675699,-121.273287,,,,,
Hemet Neighborhood Market,https://www.walmart.com/store/5008/hemet-ca/details,859 W Florida Ave,Hemet,CA,92543,US,951-492-3029,,,,,,,"monday - friday : 06:00-23:00, saturday : 06:00-23:00, sunday : 06:00-23:00",33.745448,-116.979639,,,,,
Vacaville Neighborhood Market,https://www.walmart.com/store/5007/vacaville-ca/details,2050 Nut Tree Rd,Vacaville,CA,95687,US,707-359-3258,,,,,,,"monday - friday : 06:00-22:00, saturday : 06:00-22:00, sunday : 06:00-22:00",38.350599,-121.951128,,,,,
National City Supercenter,https://www.walmart.com/store/5023/national-city-ca/details,1200 Highland Ave,National City,CA,91950,US,619-336-0395,,,,,,,"monday - friday : 06:00-24:00, saturday : 06:00-24:00, sunday : 06:00-24:00",32.6747692,-117.0993336,,,,,
Buena Park Store,https://www.walmart.com/store/5032/buena-park-ca/details,8450 La Palma Ave,Buena Park,CA,90620,US,714-484-8668,,,,,,,"monday - friday : 07:00-23:00, saturday : 07:00-23:00, sunday : 07:00-23:00",33.84467,-117.986649,,,,,
Torrance Store,https://www.walmart.com/store/5072/torrance-ca/details,19503 Normandie Ave,Torrance,CA,90501,US,310-782-6022,,,,,,,"monday - friday : 06:00-24:00, saturday : 06:00-24:00, sunday : 06:00-24:00",33.856992,-118.300251,,,,,
Oceanside Supercenter,https://www.walmart.com/store/5075/oceanside-ca/details,3405 Marron Rd,Oceanside,CA,92056,US,760-730-1371,,,,,,,"monday - friday : 06:00-23:00, saturday : 06:00-23:00, sunday : 06:00-23:00",33.177006,-117.297792,,,,,
Palm Desert Supercenter,https://www.walmart.com/store/5096/palm-desert-ca/details,34500 Monterey Ave,Palm Desert,CA,92211,US,760-328-4375,,,,,,,"monday - friday : 06:00-24:00, saturday : 06:00-24:00, sunday : 06:00-24:00",33.798218,-116.384711,,,,,
Anderson Supercenter,https://www.walmart.com/store/5133/anderson-ca/details,5000 Rhonda Rd,Anderson,CA,96007,US,530-378-0244,,,,,,,"monday - friday : 00:00-24:00, saturday : 00:00-24:00, sunday : 00:00-24:00",40.431344,-122.289703,,,,,
Marysville Supercenter,https://www.walmart.com/store/5136/marysville-ca/details,1131 N Beale Rd,Marysville,CA,95901,US,530-634-9751,,,,,,,"monday - friday : 06:00-24:00, saturday : 06:00-24:00, sunday : 06:00-24:00",39.127225,-121.574284,,,,,
Bakersfield Supercenter,https://www.walmart.com/store/5134/bakersfield-ca/details,5075 Gosford Rd,Bakersfield,CA,93313,US,661-282-3099,,,,,,,"monday - friday : 06:00-24:00, saturday : 06:00-24:00, sunday : 06:00-24:00",35.308793,-119.095393,,,,,
Dixon Supercenter,https://www.walmart.com/store/5139/dixon-ca/details,235 E Dorset Dr,Dixon,CA,95620,US,707-693-6505,,,,,,,"monday - friday : 00:00-24:00, saturday : 00:00-24:00, sunday : 00:00-24:00",38.471927,-121.820361,,,,,
La Mesa Store,https://www.walmart.com/store/5140/la-mesa-ca/details,5500 Grossmont Center Dr,La Mesa,CA,91942,US,619-337-3655,,,,,,,"monday - friday : 06:00-24:00, saturday : 06:00-24:00, sunday : 06:00-24:00",32.77773,-117.009055,,,,,
Beaumont Supercenter,https://www.walmart.com/store/5156/beaumont-ca/details,1540 E 2nd St,Beaumont,CA,92223,US,951-845-1529,,,,,,,"monday - friday : 06:00-24:00, saturday : 06:00-24:00, sunday : 06:00-24:00",33.925116,-116.9516584,,,,,
Rosemead Supercenter,https://www.walmart.com/store/5154/rosemead-ca/details,1827 Walnut Grove Ave,Rosemead,CA,91770,US,626-307-1010,,,,,,,"monday - friday : 08:00-22:00, saturday : 08:00-22:00, sunday : 08:00-22:00",34.050394,-118.085476,,,,,
West Hills Store,https://www.walmart.com/store/5152/west-hills-ca/details,6433 Fallbrook Ave,West Hills,CA,91307,US,818-719-8602,,,,,,,"monday - friday : 07:00-23:00, saturday : 07:00-23:00, sunday : 07:00-23:00",34.188122,-118.625264,,,,,
Norwalk Store,https://www.walmart.com/store/5164/norwalk-ca/details,11729 Imperial Hwy,Norwalk,CA,90650,US,562-929-6766,,,,,,,"monday - friday : 06:00-23:00, saturday : 06:00-23:00, sunday : 06:00-23:00",33.9183185,-118.0828631,,,,,
Santa Clarita Supercenter,https://www.walmart.com/store/5162/santa-clarita-ca/details,27931 Kelly Johnson Pkwy,Santa Clarita,CA,91355,US,661-294-5211,,,,,,,"monday - friday : 06:00-24:00, saturday : 06:00-24:00, sunday : 06:00-24:00",34.444031,-118.576072,,,,,
Sacramento Supercenter,https://www.walmart.com/store/5192/sacramento-ca/details,5821 Antelope Rd,Sacramento,CA,95842,US,916-729-6162,,,,,,,"monday - friday : 06:00-24:00, saturday : 06:00-24:00, sunday : 06:00-24:00",38.704318,-121.33186,,,,,
Moreno Valley Supercenter,https://www.walmart.com/store/5193/moreno-valley-ca/details,12721 Moreno Beach Dr,Moreno Valley,CA,92555,US,951-242-1185,,,,,,,"monday - friday : 06:00-24:00, saturday : 06:00-24:00, sunday : 06:00-24:00",33.935827,-117.181887,,,,,
Delano Supercenter,https://www.walmart.com/store/5215/delano-ca/details,530 Woollomes Ave,Delano,CA,92315,US,661-370-4061,,,,,,,"monday - friday : 06:00-24:00, saturday : 06:00-24:00, sunday : 06:00-24:00",35.743983,-119.248053,,,,,
Galt Supercenter,https://www.walmart.com/store/5231/galt-ca/details,10470 Twin Cities Road,Galt,CA,95632,US,209-744-1938,,,,,,,"monday - friday : 06:00-24:00, saturday : 06:00-24:00, sunday : 06:00-24:00",38.289653,-121.304762,,,,,
Chula Vista Store,https://www.walmart.com/store/5305/chula-vista-ca/details,1150 Broadway,Chula Vista,CA,91911,US,619-591-4910,,,,,,,"monday - friday : 06:00-24:00, saturday : 06:00-24:00, sunday : 06:00-24:00",32.606887,-117.083014,,,,,
Brawley Supercenter,https://www.walmart.com/store/5335/brawley-ca/details,250 Wildcat Dr,Brawley,CA,92227,US,760-351-0186,,,,,,,"monday - friday : 06:00-24:00, saturday : 06:00-24:00, sunday : 06:00-24:00",32.962431,-115.545833,,,,,
Clovis Supercenter,https://www.walmart.com/store/5337/clovis-ca/details,1185 Herndon Ave,Clovis,CA,93611,US,559-321-0067,,,,,,,"monday - friday : 06:00-23:00, saturday : 06:00-23:00, sunday : 06:00-23:00",36.839765,-119.695785,,,,,
San Diego Store,https://www.walmart.com/store/5338/san-diego-ca/details,4840 Shawline St,San Diego,CA,92111,US,858-268-2885,,,,,,,"monday - friday : 06:00-24:00, saturday : 06:00-24:00, sunday : 06:00-24:00",32.829543,-117.164984,,,,,
Dinuba Supercenter,https://www.walmart.com/store/5394/dinuba-ca/details,770 W El Monte Way,Dinuba,CA,93618,US,559-591-0380,,,,,,,"monday - friday : 05:00-24:00, saturday : 05:00-24:00, sunday : 05:00-24:00",36.543418,-119.402385,,,,,
San Jacinto Supercenter,https://www.walmart.com/store/5425/san-jacinto-ca/details,1861 S San Jacinto Ave,San Jacinto,CA,92583,US,951-487-1492,,,,,,,"monday - friday : 06:00-24:00, saturday : 06:00-24:00, sunday : 06:00-24:00",33.767907,-116.95555,,,,,
Fremont Store,https://www.walmart.com/store/5426/fremont-ca/details,40580 Albrae St,Fremont,CA,94538,US,510-440-8060,,,,,,,"monday - friday : 06:00-22:00, saturday : 06:00-22:00, sunday : 06:00-22:00",37.520242,-121.985626,,,,,
San Leandro Store,https://www.walmart.com/store/5434/san-leandro-ca/details,15555 Hesperian Blvd,San Leandro,CA,94579,US,510-351-0108,,,,,,,"monday - friday : 06:00-24:00, saturday : 06:00-24:00, sunday : 06:00-24:00",37.688248,-122.131586,,,,,
San Jose Supercenter,https://www.walmart.com/store/5435/san-jose-ca/details,777 Story Rd,San Jose,CA,95122,US,408-885-1142,,,,,,,"monday - friday : 06:00-24:00, saturday : 06:00-24:00, sunday : 06:00-24:00",37.331034,-121.860387,,,,,
Huntington Beach Neighborhood Market,https://www.walmart.com/store/5601/huntington-beach-ca/details,21132 Beach Blvd,Huntington Beach,CA,92648,US,714-274-4484,,,,,,,"monday - friday : 06:00-24:00, saturday : 06:00-24:00, sunday : 06:00-24:00",33.6555402,-117.9870451,,,,,
Rancho Santa Margarita Neighborhood Market,https://www.walmart.com/store/5600/rancho-santa-margarita-ca/details,30491 Avenida De Las Flores,Rancho Santa Margarita,CA,92688,US,949-207-5070,,,,,,,"monday - friday : 06:00-24:00, saturday : 06:00-24:00, sunday : 06:00-24:00",33.640786,-117.601392,,,,,
Carson Neighborhood Market,https://www.walmart.com/store/5602/carson-ca/details,20226 Avalon Blvd.,Carson,CA,90746,US,424-233-3317,,,,,,,"monday - friday : 06:00-23:00, saturday : 06:00-23:00, sunday : 06:00-23:00",33.8483863,-118.2634793,,,,,
Downey Neighborhood Market,https://www.walmart.com/store/5603/downey-ca/details,12270 Paramount Blvd,Downey,CA,90242,US,562-622-4891,,,,,,,"monday - friday : 06:00-24:00, saturday : 06:00-24:00, sunday : 06:00-24:00",33.928185,-118.147756,,,,,
Hawthorne Neighborhood Market,https://www.walmart.com/store/5604/hawthorne-ca/details,14441 Inglewood Ave,Hawthorne,CA,90250,US,424-336-2212,,,,,,,"monday - friday : 07:00-23:00, saturday : 07:00-23:00, sunday : 07:00-23:00",33.900143,-118.362426,,,,,
Panorama City Neighborhood Market,https://www.walmart.com/store/5605/panorama-city-ca/details,14530 Nordhoff St,Panorama City,CA,91402,US,818-672-0142,,,,,,,"monday - friday : 06:00-23:00, saturday : 06:00-23:00, sunday : 06:00-23:00",34.2344724,-118.4486726,,,,,
Woodland Neighborhood Market,https://www.walmart.com/store/5606/woodland-ca/details,1250 E Gibson Road,Woodland,CA,95776,US,530-665-4306,,,,,,,"monday - friday : 06:00-24:00, saturday : 06:00-24:00, sunday : 06:00-24:00",38.661335,-121.763685,,,,,
Vallejo Neighborhood Market,https://www.walmart.com/store/5609/vallejo-ca/details,501 Sereno Dr,Vallejo,CA,94589,US,707-653-1058,,,,,,,"monday - friday : 06:00-22:00, saturday : 06:00-22:00, sunday : 06:00-22:00",38.126511,-122.254376,,,,,
Vacaville Neighborhood Market,https://www.walmart.com/store/5608/vacaville-ca/details,941 Alamo Dr.,Vacaville,CA,95687,US,707-359-3180,,,,,,,"monday - friday : 06:00-23:00, saturday : 06:00-23:00, sunday : 06:00-23:00",38.344678,-121.995845,,,,,
San Ramon Neighborhood Market,https://www.walmart.com/store/5610/san-ramon-ca/details,9100 Alcosta Blvd,San Ramon,CA,94583,US,925-364-9207,,,,,,,"monday - friday : 06:00-24:00, saturday : 06:00-24:00, sunday : 06:00-24:00",37.729313,-121.929191,,,,,
Pleasanton Neighborhood Market,https://www.walmart.com/store/5611/pleasanton-ca/details,3112 Santa Rita Rd.,Pleasanton,CA,94566,US,925-398-6369,,,,,,,"monday - friday : 06:00-23:00, saturday : 06:00-23:00, sunday : 06:00-23:00",37.689975,-121.876915,,,,,
Eureka Store,https://www.walmart.com/store/5629/eureka-ca/details,3300 Broadway Bayshore Mall,Eureka,CA,95501,US,707-832-5269,,,,,,,"monday - friday : 06:00-23:00, saturday : 06:00-23:00, sunday : 06:00-23:00",40.780681,-124.190507,,,,,
Fresno Supercenter,https://www.walmart.com/store/5632/fresno-ca/details,1804 East Ashlan Avenue,Fresno,CA,93726,US,559-470-6967,,,,,,,"monday - friday : 07:00-23:00, saturday : 07:00-23:00, sunday : 07:00-23:00",36.79259,-119.789216,,,,,
Clovis Neighborhood Market,https://www.walmart.com/store/5633/clovis-ca/details,1830 Shaw Ave,Clovis,CA,93611,US,559-862-2718,,,,,,,"monday - friday : 06:00-24:00, saturday : 06:00-24:00, sunday : 06:00-24:00",36.807126,-119.680832,,,,,
Fresno Neighborhood Market,https://www.walmart.com/store/5634/fresno-ca/details,6855 N Willow Ave,Fresno,CA,93710,US,559-862-2062,,,,,,,"monday - friday : 06:00-24:00, saturday : 06:00-24:00, sunday : 06:00-24:00",36.836316,-119.731113,,,,,
Visalia Neighborhood Market,https://www.walmart.com/store/5635/visalia-ca/details,1320 N Demaree St,Visalia,CA,93291,US,559-429-3264,,,,,,,"monday - friday : 06:00-24:00, saturday : 06:00-24:00, sunday : 06:00-24:00",36.341376,-119.329685,,,,,
Oceanside Neighborhood Market,https://www.walmart.com/store/5637/oceanside-ca/details,1046 Mission Avenue,Oceanside,CA,92054,US,760-696-9906,,,,,,,"monday - friday : 06:00-24:00, saturday : 06:00-24:00, sunday : 06:00-24:00",33.200034,-117.374942,,,,,
San Diego Neighborhood Market,https://www.walmart.com/store/5638/san-diego-ca/details,2121 Imperial Avenue,San Diego,CA,92102,US,619-849-5729,,,,,,,"monday - friday : 06:00-22:00, saturday : 06:00-22:00, sunday : 06:00-22:00",32.705735,-117.144421,,,,,
Garden Grove Neighborhood Market,https://www.walmart.com/store/5639/garden-grove-ca/details,10912 Katella Avenue,Garden Grove,CA,92840,US,714-620-3822,,,,,,,"monday - friday : 06:00-24:00, saturday : 06:00-24:00, sunday : 06:00-24:00",33.800975,-117.94235,,,,,
Oxnard Neighborhood Market,https://www.walmart.com/store/5643/oxnard-ca/details,421 W Esplanade Dr,Oxnard,CA,93036,US,805-604-2082,,,,,,,"monday - friday : 06:00-23:00, saturday : 06:00-23:00, sunday : 06:00-23:00",34.237006,-119.178825,,,,,
La Habra Supercenter,https://www.walmart.com/store/5641/la-habra-ca/details,1000 E Imperial Hwy,La Habra,CA,90631,US,714-869-0530,,,,,,,"monday - friday : 06:00-23:00, saturday : 06:00-23:00, sunday : 06:00-23:00",33.916159,-117.934851,,,,,
Irvine Supercenter,https://www.walmart.com/store/5644/irvine-ca/details,"16555 Von Karman Ave, Ste A",Irvine,CA,92606,US,949-623-7467,,,,,,,"monday - friday : 06:00-24:00, saturday : 06:00-24:00, sunday : 06:00-24:00",33.698789,-117.835671,,,,,
Anaheim Neighborhood Market,https://www.walmart.com/store/5640/anaheim-ca/details,1120 S Anaheim Blvd,Anaheim,CA,92805,US,657-208-5201,,,,,,,"monday - friday : 06:00-23:00, saturday : 06:00-23:00, sunday : 06:00-23:00",33.819473,-117.908042,,,,,
Santa Maria Neighborhood Market,https://www.walmart.com/store/5658/santa-maria-ca/details,2240 S Bradley Rd,Santa Maria,CA,93454,US,805-348-4951,,,,,,,"monday - friday : 06:00-24:00, saturday : 06:00-24:00, sunday : 06:00-24:00",34.9198793,-120.4191493,,,,,
Santa Maria Neighborhood Market,https://www.walmart.com/store/5659/santa-maria-ca/details,500 S Blosser Rd,Santa Maria,CA,93458,US,805-863-9145,,,,,,,"monday - friday : 06:00-24:00, saturday : 06:00-24:00, sunday : 06:00-24:00",34.948143,-120.4527076,,,,,
La Mirada Neighborhood Market,https://www.walmart.com/store/5661/la-mirada-ca/details,14865 Telegraph Road,La Mirada,CA,90638,US,562-567-6488,,,,,,,"monday - friday : 06:00-24:00, saturday : 06:00-24:00, sunday : 06:00-24:00",33.918651,-118.013542,,,,,
Jurupa Valley Neighborhood Market,https://www.walmart.com/store/5663/jurupa-valley-ca/details,8844 Limonite Avenue,Jurupa Valley,CA,92509,US,951-968-7218,,,,,,,"monday - friday : 06:00-24:00, saturday : 06:00-24:00, sunday : 06:00-24:00",33.974237,-117.4768763,,,,,
Camarillo Neighborhood Market,https://www.walmart.com/store/5664/camarillo-ca/details,275 West Ventura Blvd,Camarillo,CA,93010,US,805-233-3378,,,,,,,"monday - friday : 07:00-23:00, saturday : 07:00-23:00, sunday : 07:00-23:00",34.217292,-119.074618,,,,,
Elk Grove Neighborhood Market,https://www.walmart.com/store/5683/elk-grove-ca/details,8455 Elk Grove Blvd,Elk Grove,CA,95758,US,916-509-3170,,,,,,,"monday - friday : 06:00-24:00, saturday : 06:00-24:00, sunday : 06:00-24:00",38.410207,-121.39202,,,,,
Irvine Supercenter,https://www.walmart.com/store/5687/irvine-ca/details,71 Technology Dr,Irvine,CA,92618,US,949-242-6587,,,,,,,"monday - friday : 06:00-23:00, saturday : 06:00-23:00, sunday : 06:00-23:00",33.6569282,-117.7417489,,,,,
La Mesa Neighborhood Market,https://www.walmart.com/store/5684/la-mesa-ca/details,8810 Grossmont Blvd,La Mesa,CA,91942,US,619-403-5392,,,,,,,"monday - friday : 06:00-24:00, saturday : 06:00-24:00, sunday : 06:00-24:00",32.7751045,-117.0077239,,,,,
Burbank Supercenter,https://www.walmart.com/store/5686/burbank-ca/details,1301 N Victory Pl,Burbank,CA,91502,US,747-261-7243,,,,,,,"monday - friday : 07:00-24:00, saturday : 07:00-24:00, sunday : 07:00-24:00",34.188222,-118.32521,,,,,
Palmdale Neighborhood Market,https://www.walmart.com/store/5689/palmdale-ca/details,3875 Rancho Vista Boulevard,Palmdale,CA,93551,US,661-202-3602,,,,,,,"monday - friday : 06:00-24:00, saturday : 06:00-24:00, sunday : 06:00-24:00",34.6141616,-118.2000966,,,,,
Upland Neighborhood Market,https://www.walmart.com/store/5691/upland-ca/details,1445 East Foothill Blvd,Upland,CA,91786,US,909-942-4931,,,,,,,"monday - friday : 06:00-24:00, saturday : 06:00-24:00, sunday : 06:00-24:00",34.108471,-117.62971,,,,,
Kerman Supercenter,https://www.walmart.com/store/5701/kerman-ca/details,14061 W. Whitesbridge Avenue,Kerman,CA,93630,US,559-846-1200,,,,,,,"monday - friday : 05:00-24:00, saturday : 05:00-24:00, sunday : 05:00-24:00",36.732679,-120.044129,,,,,
Modesto Supercenter,https://www.walmart.com/store/5710/modesto-ca/details,3848 Mchenry Ave,Modesto,CA,95356,US,209-342-0949,,,,,,,"monday - friday : 06:00-24:00, saturday : 06:00-24:00, sunday : 06:00-24:00",37.694458,-120.99185,,,,,
Salinas Supercenter,https://www.walmart.com/store/5751/salinas-ca/details,1375 N Davis Rd.,Salinas,CA,93907,US,831-998-9080,,,,,,,"monday - friday : 06:00-24:00, saturday : 06:00-24:00, sunday : 06:00-24:00",36.705873,-121.668832,,,,,
Morgan Hill Supercenter,https://www.walmart.com/store/5766/morgan-hill-ca/details,170 Cochrane Plz,Morgan Hill,CA,95037,US,408-779-8172,,,,,,,"monday - friday : 06:00-24:00, saturday : 06:00-24:00, sunday : 06:00-24:00",37.149211,-121.655172,,,,,
Compton Supercenter,https://www.walmart.com/store/5807/compton-ca/details,2100 N Long Beach Blvd,Compton,CA,90221,US,562-295-3870,,,,,,,"monday - friday : 06:00-22:00, saturday : 06:00-22:00, sunday : 06:00-22:00",33.910022,-118.208176,,,,,
Patterson Supercenter,https://www.walmart.com/store/5843/patterson-ca/details,1030 Sperry Ave,Patterson,CA,95363,US,209-895-4407,,,,,,,"monday - friday : 06:00-24:00, saturday : 06:00-24:00, sunday : 06:00-24:00",37.462266,-121.142722,,,,,
Elk Grove Store,https://www.walmart.com/store/5848/elk-grove-ca/details,10075 Bruceville Rd,Elk Grove,CA,95757,US,916-585-7344,,,,,,,"monday - friday : 08:00-23:00, saturday : 08:00-23:00, sunday : 08:00-23:00",38.391338,-121.41621,,,,,
Wasco Supercenter,https://www.walmart.com/store/5859/wasco-ca/details,401 N. Central Avenue,Wasco,CA,93280,US,661-772-8061,,,,,,,"monday - friday : 06:00-22:00, saturday : 06:00-22:00, sunday : 06:00-22:00",35.604134,-119.359522,,,,,
Torrance Store,https://www.walmart.com/store/5874/torrance-ca/details,22015 Hawthorne Blvd,Torrance,CA,90503,US,310-750-0179,,,,,,,"monday - friday : 07:00-22:00, saturday : 07:00-22:00, sunday : 07:00-22:00",33.827786,-118.353381,,,,,
San Jose Supercenter,https://www.walmart.com/store/5884/san-jose-ca/details,5095 Almaden Expy,San Jose,CA,95118,US,408-600-3072,,,,,,,"monday - friday : 06:00-24:00, saturday : 06:00-24:00, sunday : 06:00-24:00",37.255456,-121.880176,,,,,
Encinitas Supercenter,https://www.walmart.com/store/5886/encinitas-ca/details,1550 Leucadia Blvd,Encinitas,CA,92024,US,760-704-0243,,,,,,,"monday - friday : 06:00-23:00, saturday : 06:00-23:00, sunday : 06:00-23:00",33.069254,-117.266426,,,,,
Atwater Supercenter,https://www.walmart.com/store/5890/atwater-ca/details,800 Commerce Ave,Atwater,CA,95301,US,209-676-3087,,,,,,,"monday - friday : 07:00-24:00, saturday : 07:00-24:00, sunday : 07:00-24:00",37.340296,-120.609275,,,,,
Anaheim Supercenter,https://www.walmart.com/store/5930/anaheim-ca/details,88 E Orangethorpe Ave,Anaheim,CA,92801,US,714-447-6751,,,,,,,"monday - friday : 07:00-23:00, saturday : 07:00-23:00, sunday : 07:00-23:00",33.857602,-117.918796,,,,,
San Diego Store,https://www.walmart.com/store/5938/san-diego-ca/details,575 Saturn Blvd,San Diego,CA,92154,US,619-205-6140,,,,,,,"monday - friday : 07:00-23:00, saturday : 07:00-23:00, sunday : 07:00-23:00",32.586939,-117.08928,,,,,
West Covina Supercenter,https://www.walmart.com/store/5954/west-covina-ca/details,"2753 E. Eastland Center Dr, Ste 5555",West Covina,CA,91791,US,626-332-4608,,,,,,,"monday - friday : 06:00-24:00, saturday : 06:00-24:00, sunday : 06:00-24:00",34.073315,-117.886899,,,,,
Visalia Supercenter,https://www.walmart.com/store/5956/visalia-ca/details,3750 S Mooney Blvd,Visalia,CA,93277,US,559-802-4429,,,,,,,"monday - friday : 00:00-24:00, saturday : 00:00-24:00, sunday : 00:00-24:00",36.296665,-119.310199,,,,,
Carmichael Neighborhood Market,https://www.walmart.com/store/5981/carmichael-ca/details,6005 Madison Ave,Carmichael,CA,95608,US,916-534-1157,,,,,,,"monday - friday : 06:00-24:00, saturday : 06:00-24:00, sunday : 06:00-24:00",38.6625991,-121.3249003,,,,,
Lincoln Neighborhood Market,https://www.walmart.com/store/5979/lincoln-ca/details,255 Lincoln Blvd,Lincoln,CA,95648,US,916-209-5129,,,,,,,"monday - friday : 06:00-24:00, saturday : 06:00-24:00, sunday : 06:00-24:00",38.888601,-121.291797,,,,,
Granite Bay Neighborhood Market,https://www.walmart.com/store/5980/granite-bay-ca/details,4080 Douglas Blvd,Granite Bay,CA,95746,US,916-380-3252,,,,,,,"monday - friday : 06:00-24:00, saturday : 06:00-24:00, sunday : 06:00-24:00",38.742435,-121.224989,,,,,
Sacramento Neighborhood Market,https://www.walmart.com/store/5982/sacramento-ca/details,2700 Marconi Ave,Sacramento,CA,95821,US,916-576-6657,,,,,,,"monday - friday : 06:00-24:00, saturday : 06:00-24:00, sunday : 06:00-24:00",38.616999,-121.39903,,,,,
Escondido Store,https://www.walmart.com/store/5996/escondido-ca/details,1330 East Grand Avenue,Escondido,CA,92027,US,760-871-6622,,,,,,,"monday - friday : 06:00-23:00, saturday : 06:00-23:00, sunday : 06:00-23:00",33.130137,-117.062977,,,,,
Sacramento Neighborhood Market,https://www.walmart.com/store/6530/sacramento-ca/details,4420 Florin Rd,Sacramento,CA,95823,US,916-533-0942,,,,,,,"monday - friday : 06:00-24:00, saturday : 06:00-24:00, sunday : 06:00-24:00",38.494354,-121.454151,,,,,
